{
"type": "FeatureCollection",
"name": "Gorkha",
"crs": { "type": "name", "properties": { "name": "urn:ogc:def:crs:EPSG::3857" } },
"features": [
{ "type": "Feature", "properties": { "id": null }, "geometry": { "type": "MultiPolygon", "coordinates": [ [ [ [ 9444682.004324056208134, 3322858.952984745614231 ], [ 9445416.344844913110137, 3322410.729271871037781 ], [ 9445752.491927089169621, 3322214.643473935313523 ], [ 9446060.62675241753459, 3322209.041022565681487 ], [ 9446357.556675005704165, 3322321.090049957856536 ], [ 9446882.029079051688313, 3322783.090062159579247 ], [ 9447534.450213292613626, 3323238.267597675789148 ], [ 9448384.114946255460382, 3323359.648273813538253 ], [ 9450265.515426389873028, 3324209.313006776850671 ], [ 9451160.697912905365229, 3324649.317957776132971 ], [ 9451317.04309169203043, 3324613.557008754927665 ], [ 9451383.98264429345727, 3324553.483051290735602 ], [ 9451497.264964083209634, 3324462.513915701769292 ], [ 9451625.994872936978936, 3324333.784006849862635 ], [ 9451932.262366635724902, 3324066.712748562451452 ], [ 9452164.533472636714578, 3323897.058031440712512 ], [ 9452279.696120386943221, 3323818.528701459988952 ], [ 9452608.031302643939853, 3323831.489300759509206 ], [ 9452780.839293306693435, 3323896.292297258041799 ], [ 9452814.509625280275941, 3323936.206485467497259 ], [ 9452875.199963349848986, 3324588.627619707491249 ], [ 9453072.443562073633075, 3324952.769648119807243 ], [ 9453806.606891600415111, 3325077.389893087092787 ], [ 9454604.249754222109914, 3325104.89481938444078 ], [ 9455161.224511742591858, 3325029.256272066850215 ], [ 9455955.234620342031121, 3324952.769648119807243 ], [ 9456137.30563454888761, 3324391.384020983241498 ], [ 9456167.65080358274281, 3323723.790302226319909 ], [ 9456317.201752906665206, 3323540.236936077009887 ], [ 9456480.424620907753706, 3323416.716927859932184 ], [ 9456639.236060043796897, 3323341.722637156490237 ], [ 9456824.516072370111942, 3323332.89977942686528 ], [ 9457045.087515614926815, 3323385.836925805546343 ], [ 9457533.183410132303834, 3323647.927379640284926 ], [ 9458231.122297924011946, 3323936.206485467031598 ], [ 9458554.350980628281832, 3324035.524501591455191 ], [ 9458724.613797470927238, 3324086.382226103451103 ], [ 9458901.510230556130409, 3324161.563210164662451 ], [ 9459096.096306949853897, 3324247.800221293698996 ], [ 9459293.203214129433036, 3324300.348513879813254 ], [ 9459651.707410641014576, 3324334.415260775014758 ], [ 9460006.130324063822627, 3324428.928037687204778 ], [ 9460242.412266343832016, 3324511.626717485953122 ], [ 9460658.735820677131414, 3324694.835711327381432 ], [ 9460838.02865806594491, 3324934.778250217437744 ], [ 9460993.371227512136102, 3325140.502193538937718 ], [ 9461136.118453491479158, 3325407.103630292229354 ], [ 9461176.003707809373736, 3325554.049304093699902 ], [ 9461182.301379542797804, 3325629.621364905498922 ], [ 9461159.209916517138481, 3325789.162382175214589 ], [ 9461108.828542642295361, 3325986.489429851062596 ], [ 9461033.624357545748353, 3326084.501632134895772 ], [ 9460917.952388342469931, 3326164.451375554315746 ], [ 9460780.166660321876407, 3326208.678893190808594 ], [ 9460734.238084314391017, 3326239.29794386215508 ], [ 9460705.320092014968395, 3326281.824403127655387 ], [ 9460704.253574229776859, 3326363.820008220151067 ], [ 9460749.771327780559659, 3326894.860466322861612 ], [ 9461054.906400313600898, 3327284.67160214856267 ], [ 9461396.698501436039805, 3327877.781424682587385 ], [ 9461869.1758176907897, 3328531.207500356249511 ], [ 9462261.23146309517324, 3328963.47398118628189 ], [ 9462743.761488208547235, 3329747.585271994117647 ], [ 9463326.818601885810494, 3330340.695094528608024 ], [ 9463759.085082715377212, 3330541.749271658714861 ], [ 9464412.511158388108015, 3331215.280765044968575 ], [ 9464925.199310071766376, 3331918.970385001040995 ], [ 9465256.938702335581183, 3332371.342283544130623 ], [ 9465674.126119881868362, 3332788.529701088555157 ], [ 9466498.44824611581862, 3332909.162207366432995 ], [ 9466669.344296677038074, 3333441.955776761751622 ], [ 9466769.871385240927339, 3334004.907472726423293 ], [ 9466840.240347236394882, 3334366.804991560988128 ], [ 9467332.823081206530333, 3334407.015826987102628 ], [ 9467865.61665060184896, 3334376.857700417283922 ], [ 9468106.881663158535957, 3335020.231067234184593 ], [ 9468207.408751722425222, 3335633.446307481266558 ], [ 9468443.647409852594137, 3335980.26476303068921 ], [ 9468885.96659953892231, 3335990.317471886985004 ], [ 9469619.814346063882113, 3335789.263294756878167 ], [ 9470253.13500402495265, 3335447.471193635370582 ], [ 9470735.665029136464, 3334874.466788813937455 ], [ 9471248.353180820122361, 3334703.570738253183663 ], [ 9471730.883205931633711, 3334683.465320540592074 ], [ 9472173.202395617961884, 3334924.730333096813411 ], [ 9472484.836370170116425, 3335407.260358209256083 ], [ 9472816.575762435793877, 3335738.999750474002212 ], [ 9473409.685584969818592, 3335909.895801034756005 ], [ 9474083.217078356072307, 3336030.528307313099504 ], [ 9474897.486495733261108, 3336141.108104734681547 ], [ 9475671.545077685266733, 3335970.212054173927754 ], [ 9476264.654900219291449, 3335718.894332760944963 ], [ 9476706.974089905619621, 3335367.049522783141583 ], [ 9477028.660773316398263, 3334844.308662244584411 ], [ 9477078.924317598342896, 3334412.042181414552033 ], [ 9477259.873077016323805, 3334030.03924486739561 ], [ 9477561.45434271171689, 3333929.512156302109361 ], [ 9477973.615405827760696, 3333718.405270315241069 ], [ 9478134.458747532218695, 3333296.191498341970146 ], [ 9478285.249380379915237, 3332783.503346659708768 ], [ 9478516.461684079840779, 3332461.816663251258433 ], [ 9478828.09565863199532, 3332019.49747356493026 ], [ 9479099.518797757104039, 3331607.336410447955132 ], [ 9479411.15277230925858, 3331466.598486456554383 ], [ 9479632.312367152422667, 3331074.542841052636504 ], [ 9480145.000518834218383, 3331044.38471448328346 ], [ 9480687.846797086298466, 3331044.384714483749121 ], [ 9481492.063505606725812, 3331195.175347331445664 ], [ 9481984.646239576861262, 3331275.597018183209002 ], [ 9482386.754593836143613, 3331205.228056187741458 ], [ 9482869.284618949517608, 3330974.015752488281578 ], [ 9482920.004672199487686, 3330909.154010193422437 ], [ 9482946.814632913097739, 3330808.616657517850399 ], [ 9482961.895235814154148, 3330731.538020466919988 ], [ 9482951.841500546783209, 3330649.432515781838447 ], [ 9482919.54816323146224, 3330602.065524796955287 ], [ 9482688.335859531536698, 3329918.481322554405779 ], [ 9482869.284618949517608, 3329586.741930289193988 ], [ 9483462.394441483542323, 3329486.2148417243734 ], [ 9484005.240719735622406, 3329244.949829168152064 ], [ 9484079.437482077628374, 3329136.100556353107095 ], [ 9484104.716699529439211, 3329068.689309818670154 ], [ 9484144.039926674216986, 3328874.881976032629609 ], [ 9484158.083936369046569, 3328793.426719803828746 ], [ 9484160.892738306894898, 3328695.118651941418648 ], [ 9484125.873226013034582, 3328631.734588920604438 ], [ 9483944.924466596916318, 3328078.835601812694222 ], [ 9483663.448618611320853, 3327365.093272999860346 ], [ 9483281.445682063698769, 3326751.878032752778381 ], [ 9483130.655049216002226, 3326359.822387348860502 ], [ 9482839.126492377370596, 3326118.557374792173505 ], [ 9482376.701884977519512, 3325947.661324231419712 ], [ 9481998.947152521461248, 3325683.504731675144285 ], [ 9481710.236858883872628, 3325481.615196347236633 ], [ 9481594.989778188988566, 3325348.44079198827967 ], [ 9481561.69617709890008, 3325263.926266144961119 ], [ 9481543.76885343529284, 3325161.484416638035327 ], [ 9481548.890945911407471, 3324997.577457427047193 ], [ 9481610.356055615469813, 3324813.182128314394504 ], [ 9481776.824061064049602, 3324633.908891677390784 ], [ 9482030.36763859167695, 3324454.635655039921403 ], [ 9482150.736811762675643, 3324339.38857434457168 ], [ 9482236.749964784830809, 3324197.007153268437833 ], [ 9482326.187717944383621, 3323992.578003189526498 ], [ 9482381.553946090862155, 3323809.443556243553758 ], [ 9482407.107589852064848, 3323643.344871804583818 ], [ 9482526.357927396893501, 3323396.326315458863974 ], [ 9482649.867205569520593, 3323234.486571646295488 ], [ 9482746.518469668924809, 3323042.235736781265587 ], [ 9483113.751327946782112, 3322786.285562829114497 ], [ 9483297.367757085710764, 3322585.976731040980667 ], [ 9483436.471112495288253, 3322324.462422872427851 ], [ 9483376.946416201069951, 3322132.658313184045255 ], [ 9483276.419327635318041, 3321760.708085493184626 ], [ 9483115.575985932722688, 3321328.441604663152248 ], [ 9482934.627226514741778, 3320996.702212398406118 ], [ 9482783.836593667045236, 3320664.962820133194327 ], [ 9482864.258264519274235, 3320463.908643003087491 ], [ 9483055.259732792153955, 3320182.432795020751655 ], [ 9483075.365150505676866, 3319780.324440760537982 ], [ 9483045.207023937255144, 3319267.636289078276604 ], [ 9483015.048897366970778, 3318563.946669122204185 ], [ 9482954.732644228264689, 3317880.362466879654676 ], [ 9482914.521808801218867, 3317427.990568336565048 ], [ 9482673.256796246394515, 3317287.252644345164299 ], [ 9481647.880492880940437, 3317287.252644345164299 ], [ 9481044.717961490154266, 3317277.199935488868505 ], [ 9480612.451480660587549, 3317045.987631788942963 ], [ 9480642.609607230871916, 3316583.56302438955754 ], [ 9480581.335695115849376, 3316059.992637385148555 ], [ 9480526.543903969228268, 3315754.071803478058428 ], [ 9480293.678791591897607, 3315598.828395226504654 ], [ 9480193.227174486964941, 3315238.115770171862096 ], [ 9480193.227174486964941, 3314991.552710007876158 ], [ 9480101.907522575929761, 3314786.083493204787374 ], [ 9479859.91044500656426, 3314544.086415635421872 ], [ 9479590.517471864819527, 3314224.467633941676468 ], [ 9479558.555593695491552, 3313854.62304369546473 ], [ 9479549.423628503456712, 3313215.38548030750826 ], [ 9479585.951489269733429, 3312845.540890061296523 ], [ 9479486.364413807168603, 3312295.648637575097382 ], [ 9479180.961180014535785, 3311808.457764617633075 ], [ 9478824.657407253980637, 3311539.412058656103909 ], [ 9478402.910084394738078, 3311350.352913926355541 ], [ 9478010.248783802613616, 3311284.90936382766813 ], [ 9477661.216516608372331, 3311452.153991858009249 ], [ 9477086.767576852813363, 3311437.610980724915862 ], [ 9476519.590142663568258, 3311517.597541956696659 ], [ 9475894.240663941949606, 3311517.597541956696659 ], [ 9475661.552485814318061, 3311408.524958458729088 ], [ 9475516.122374482452869, 3311241.28033042838797 ], [ 9475043.474512659013271, 3311146.750758063048124 ], [ 9474847.14386236295104, 3310579.57332387380302 ], [ 9474636.270200934261084, 3309779.707711555529386 ], [ 9474432.66804507188499, 3309147.086727267596871 ], [ 9474199.979866936802864, 3308768.968437808100134 ], [ 9473829.13308304361999, 3308194.519498052075505 ], [ 9473400.114254618063569, 3307852.758736425079405 ], [ 9473225.598121022805572, 3307598.256041596643627 ], [ 9473196.512098755687475, 3307285.581302236299962 ], [ 9473240.141132155433297, 3306922.006023909430951 ], [ 9473487.372321417555213, 3306674.774834647774696 ], [ 9473923.662655409425497, 3306369.371600853279233 ], [ 9474309.052450435236096, 3306216.669983956497163 ], [ 9474658.084717627614737, 3306056.696861492935568 ], [ 9474825.329345658421516, 3305867.6377167631872 ], [ 9474774.428806692361832, 3305605.863516367971897 ], [ 9474650.813212061300874, 3305322.274799273349345 ], [ 9474621.727189796045423, 3304915.070487548131496 ], [ 9474658.084717627614737, 3304260.63498656032607 ], [ 9474717.990806739777327, 3303785.470102379098535 ], [ 9474901.335536438971758, 3303464.616825406905264 ], [ 9475038.844083713367581, 3303108.113184325397015 ], [ 9475115.237721087411046, 3302466.406630380544811 ], [ 9475140.702266879379749, 3301931.651168759912252 ], [ 9474977.729173814877868, 3301636.262437578756362 ], [ 9475079.587356980890036, 3301330.68788808118552 ], [ 9475304.479265468195081, 3301006.822188519407064 ], [ 9475443.413360539823771, 3300748.801726245786995 ], [ 9475582.347455609589815, 3300498.720355118624866 ], [ 9475911.819738205522299, 3300153.36989022931084 ], [ 9476122.205653598532081, 3299879.471245661377907 ], [ 9476149.992472613230348, 3299692.902603709604591 ], [ 9476106.327471304684877, 3299284.039409645367414 ], [ 9476015.027923116460443, 3299026.018947371281683 ], [ 9475820.520190017297864, 3298799.75484968489036 ], [ 9475626.012456918135285, 3298506.008477250114083 ], [ 9475639.906117482110858, 3298018.953811138402671 ], [ 9475673.735100205987692, 3297748.321949343197048 ], [ 9475644.738829299807549, 3297458.359240276739001 ], [ 9475659.23696475289762, 3297158.731107574887574 ], [ 9475562.582728397101164, 3296917.095516686327755 ], [ 9475364.441543869674206, 3296757.616026699542999 ], [ 9475137.304088434204459, 3296631.9655194375664 ], [ 9474943.995615722611547, 3296520.813147628679872 ], [ 9474857.231889953836799, 3296316.27360800281167 ], [ 9474812.004795890301466, 3296073.177977409213781 ], [ 9474795.044635616242886, 3295530.452848642133176 ], [ 9474693.283673971891403, 3294999.034493390936404 ], [ 9474467.148203652352095, 3294309.321308915968984 ], [ 9474258.526116335764527, 3293858.20228868117556 ], [ 9474040.939150404185057, 3293524.568940921220928 ], [ 9473692.800004916265607, 3293277.97037953324616 ], [ 9471197.802795579656959, 3293495.557345463894308 ], [ 9470298.443336401134729, 3293234.452986347489059 ], [ 9469268.531697662547231, 3292509.163099912460893 ], [ 9468093.562081638723612, 3291624.309438461903483 ], [ 9467457.444901892915368, 3290932.907072986476123 ], [ 9466552.676287418231368, 3289640.380480878986418 ], [ 9466121.834090048447251, 3288304.769669034518301 ], [ 9465690.991892678663135, 3286559.858769689686596 ], [ 9465454.028684126213193, 3284750.321540738921613 ], [ 9465044.728596625849605, 3283307.000179552473128 ], [ 9463716.058693962171674, 3282470.187641300261021 ], [ 9462498.369205260649323, 3281658.394648832734674 ], [ 9461280.679716559126973, 3280440.705160131212324 ], [ 9460099.889909332618117, 3279370.614397333003581 ], [ 9459559.067644506692886, 3278829.792132506147027 ], [ 9459442.219801323488355, 3278557.147165079601109 ], [ 9458800.055459061637521, 3277509.405343492981046 ], [ 9458445.175164652988315, 3276478.562583544757217 ], [ 9458681.762027591466904, 3275920.89354947488755 ], [ 9458952.147013807669282, 3275194.233899019658566 ], [ 9459070.440445277839899, 3274518.271433479618281 ], [ 9459053.541383638978004, 3274163.391139071434736 ], [ 9458732.459212506189942, 3273318.438057146966457 ], [ 9458283.152584375813603, 3272300.44152928609401 ], [ 9458041.624020712450147, 3271006.53850965667516 ], [ 9457716.269024297595024, 3269923.777821487747133 ], [ 9457453.254929177463055, 3268608.707345893606544 ], [ 9457409.419246658682823, 3267425.143917858600616 ], [ 9457321.747881619259715, 3266329.251854863483459 ], [ 9456751.884008860215545, 3265671.716617066413164 ], [ 9455436.813533267006278, 3265803.223664625547826 ], [ 9454472.428517831489444, 3265803.223664625547826 ], [ 9453814.893280033022165, 3265321.031156907789409 ], [ 9453332.700772315263748, 3264356.646141471806914 ], [ 9452982.015312157571316, 3263260.754078476689756 ], [ 9452455.987121919170022, 3262953.904300838243216 ], [ 9451316.259376404806972, 3263085.411348397377878 ], [ 9450176.531630888581276, 3263216.918395956978202 ], [ 9449168.31093293428421, 3263830.617951234336942 ], [ 9448116.254552457481623, 3264663.495919110719115 ], [ 9447371.047949621453881, 3265014.18137926934287 ], [ 9446143.648839067667723, 3264838.838649190030992 ], [ 9445135.428141111508012, 3264619.66023659100756 ], [ 9444521.72858583368361, 3263918.289316273760051 ], [ 9444127.207443155348301, 3262778.561570758931339 ], [ 9443435.9693214725703, 3260950.680856798309833 ], [ 9442728.208759954199195, 3259332.942430472001433 ], [ 9442087.853966200724244, 3257344.472281445749104 ], [ 9441481.202056327834725, 3255726.733855119440705 ], [ 9441348.116504985839128, 3254045.195582518354058 ], [ 9441308.489159852266312, 3252559.170140016358346 ], [ 9440912.215708518400788, 3251192.026732914149761 ], [ 9440267.898236583918333, 3250401.67820179508999 ], [ 9439564.885973982512951, 3249547.491909878328443 ], [ 9439069.544159814715385, 3249071.963768277317286 ], [ 9438447.942506965249777, 3248581.722472178284079 ], [ 9437302.044454982504249, 3247267.310000787954777 ], [ 9436459.472357938066125, 3246525.846555388532579 ], [ 9435077.654118783771992, 3245447.354271171148866 ], [ 9434529.476022625342011, 3244674.83081221068278 ], [ 9433958.679457738995552, 3243913.768725697416812 ], [ 9433641.570255026221275, 3243304.919056486338377 ], [ 9433210.30173933506012, 3242061.850981847848743 ], [ 9432855.139432296156883, 3240856.836011535022408 ], [ 9432825.674385875463486, 3240021.950495457276702 ], [ 9432892.966063093394041, 3239130.335772320628166 ], [ 9432993.903578920289874, 3237548.981357701122761 ], [ 9433128.486933356150985, 3236926.533343435730785 ], [ 9433605.963418493047357, 3235592.892126327380538 ], [ 9434605.813744438812137, 3233887.265099714044482 ], [ 9435414.682957602664828, 3232572.852628324180841 ], [ 9436290.957938529551029, 3230651.788247061427683 ], [ 9437167.23291945643723, 3227955.557536517735571 ], [ 9436156.146403001621366, 3226101.898923018947244 ], [ 9434572.110860558226705, 3225630.058548673521727 ], [ 9432617.34359541349113, 3224551.566264456138015 ], [ 9430022.221536515280604, 3224787.486451628617942 ], [ 9428134.860039133578539, 3225798.572968082502484 ], [ 9426483.418728925287724, 3226472.630645718425512 ], [ 9425067.897605890408158, 3227584.825813817791641 ], [ 9424882.05395145341754, 3227737.559430949389935 ], [ 9424726.97060845606029, 3227970.18444544589147 ], [ 9424625.197164613753557, 3228222.19487781682983 ], [ 9424375.98530981130898, 3228970.521835579536855 ], [ 9424254.837449448183179, 3229524.340625815093517 ], [ 9424157.306919783353806, 3229941.150780973955989 ], [ 9424097.905735274776816, 3230229.670820021536201 ], [ 9424021.532783761620522, 3230416.360257052350789 ], [ 9423865.981834540143609, 3230602.523232294246554 ], [ 9423327.718855982646346, 3230828.246416850015521 ], [ 9422633.185980428010225, 3231140.786210850346833 ], [ 9421417.753448205068707, 3232512.488640073686838 ], [ 9420375.954134870320559, 3233675.831206630449742 ], [ 9419911.661934323608875, 3233760.247970366384834 ], [ 9419693.385105881839991, 3233742.058234662748873 ], [ 9419328.196206152439117, 3233661.716676722280681 ], [ 9418707.375076612457633, 3233566.767562792636454 ], [ 9418600.989270616322756, 3233511.555157034657896 ], [ 9418327.66686643846333, 3233484.8170957560651 ], [ 9418179.122081557288766, 3233464.02082587312907 ], [ 9417914.712364472448826, 3233461.049930175300688 ], [ 9417712.691457036882639, 3233464.02082587312907 ], [ 9417504.728758204728365, 3233532.351426917593926 ], [ 9417341.329494837671518, 3233606.623819357249886 ], [ 9417225.464562630280852, 3233689.808898889925331 ], [ 9417122.455251786857843, 3233785.880902630276978 ], [ 9416691.532350104302168, 3233858.918682576157153 ], [ 9416333.647228369489312, 3233880.830016559921205 ], [ 9416041.496108585968614, 3233844.311126586981118 ], [ 9415771.256322786211967, 3233588.678896776400506 ], [ 9415427.978757040575147, 3233267.312665014527738 ], [ 9415353.360908061265945, 3233217.264107771683484 ], [ 9414796.873257195577025, 3232738.788744410034269 ], [ 9414476.770341757684946, 3232541.391946556512266 ], [ 9414172.672572091221809, 3232360.000294474884868 ], [ 9413623.162567256018519, 3232242.629225481301546 ], [ 9412918.936153292655945, 3232269.304468434303999 ], [ 9412534.81265476718545, 3232327.99000293109566 ], [ 9412361.910382453352213, 3232471.743976678699255 ], [ 9411519.338285408914089, 3233550.236260896082968 ], [ 9411164.329491695389152, 3234216.168645231984556 ], [ 9411096.020913565531373, 3235496.954485175665468 ], [ 9410942.326612772420049, 3236555.737446195911616 ], [ 9410954.319826599210501, 3237587.153835366014391 ], [ 9410873.088409347459674, 3237816.720884120557457 ], [ 9410689.155849080532789, 3238104.410273256246001 ], [ 9410410.898898931220174, 3238604.329539623111486 ], [ 9410184.520363219082355, 3238807.126977866515517 ], [ 9409849.668779142200947, 3238986.343318639323115 ], [ 9409401.34176117926836, 3239217.299661226104945 ], [ 9409097.995003253221512, 3239288.08057140884921 ], [ 9407902.594885971397161, 3239561.314883930142969 ], [ 9407168.277671070769429, 3239954.089208179619163 ], [ 9406741.349057756364346, 3240363.940676961559802 ], [ 9405989.954698322340846, 3240585.943555885460228 ], [ 9405306.86891702003777, 3240637.174989482853562 ], [ 9404692.091713845729828, 3240893.332157471682876 ], [ 9404145.623088803142309, 3241576.417938774917275 ], [ 9403633.30875282548368, 3242003.34655208978802 ], [ 9403170.338724665343761, 3242421.513029139023274 ], [ 9402994.839276686310768, 3242506.755618156399578 ], [ 9402570.417499119415879, 3242777.401389358565211 ], [ 9402145.99572155252099, 3243035.745080051477998 ], [ 9401604.704179147258401, 3243226.427327943965793 ], [ 9401334.058407945558429, 3243337.146052526775748 ], [ 9400923.801048252731562, 3243404.501738446764648 ], [ 9400290.261755354702473, 3243384.180935326963663 ], [ 9399352.208157049492002, 3243401.236455296166241 ], [ 9398687.042878251522779, 3243674.124774802941829 ], [ 9398260.65487902238965, 3244032.290694155730307 ], [ 9397936.59999960847199, 3244475.734213354066014 ], [ 9397885.433439701795578, 3245175.010532090440392 ], [ 9397783.10031988658011, 3246198.341730240732431 ], [ 9397787.9885726980865, 3246374.155553918331861 ], [ 9397828.82073818333447, 3246635.481413021683693 ], [ 9397869.652903666719794, 3246904.973705222364515 ], [ 9397947.23401808924973, 3247088.718449904583395 ], [ 9398055.988639391958714, 3247204.617408422287554 ], [ 9399028.153277635574341, 3248142.671006727032363 ], [ 9399915.040316032245755, 3248893.113885370548815 ], [ 9400195.547240387648344, 3249185.611428711097687 ], [ 9400461.928219731897116, 3249411.852808427531272 ], [ 9400677.222435913980007, 3249638.094188143964857 ], [ 9400837.780834421515465, 3249831.494077256415039 ], [ 9400976.444905860349536, 3250032.192075392231345 ], [ 9401111.459922788664699, 3250287.625891201198101 ], [ 9401324.941124200820923, 3250522.817045299336314 ], [ 9401808.203032612800598, 3251536.719480593223125 ], [ 9402064.035832149907947, 3252491.828598867170513 ], [ 9402268.702071780338883, 3253481.048757079057395 ], [ 9402405.146231533959508, 3254606.713075044564903 ], [ 9403121.478070238605142, 3256329.32059193123132 ], [ 9404008.365108637139201, 3257352.65179008198902 ], [ 9404949.202008096501231, 3258263.620851464103907 ], [ 9405042.073449878022075, 3258913.720943939872086 ], [ 9405102.75092095695436, 3259088.168673292733729 ], [ 9405087.014153636991978, 3259164.604400277137756 ], [ 9405047.606424275785685, 3259465.088336657267064 ], [ 9405072.236255127936602, 3259947.833021333441138 ], [ 9405126.421882998198271, 3260336.984348776284605 ], [ 9405205.237341722473502, 3260598.06055579520762 ], [ 9405476.165481081232429, 3260775.3953379211016 ], [ 9405791.427315970882773, 3260903.470458345487714 ], [ 9406185.50460958480835, 3260923.17432302609086 ], [ 9406438.969172572717071, 3260893.059721482917666 ], [ 9407351.247022593393922, 3261002.53306348528713 ], [ 9408459.855820588767529, 3261343.64346286887303 ], [ 9409483.187018740922213, 3262008.808741666842252 ], [ 9410216.574377413839102, 3262605.751940587535501 ], [ 9411188.739015657454729, 3262929.806820001918823 ], [ 9412374.097653515636921, 3264814.441776596009731 ], [ 9413073.373972252011299, 3265564.884655239526182 ], [ 9414113.760690370574594, 3266110.661294253077358 ], [ 9415102.980848584324121, 3266878.159692865796387 ], [ 9416194.534126611426473, 3268242.601290400139987 ], [ 9416603.866605870425701, 3268447.267530030105263 ], [ 9417610.142284052446485, 3269248.876968581229448 ], [ 9418667.58452214114368, 3270528.040966269560158 ], [ 9419548.706090813502669, 3271928.932757063768804 ], [ 9420499.091814378276467, 3272980.116966461297125 ], [ 9421852.67148127220571, 3275183.283871088642627 ], [ 9421809.472130201756954, 3276364.066133699379861 ], [ 9421636.674725918099284, 3277717.64580059517175 ], [ 9421406.278186872601509, 3278452.034768804442137 ], [ 9421679.874076990410686, 3279892.013137842062861 ], [ 9422522.26142287813127, 3281612.787288842257112 ], [ 9423011.854068350046873, 3282937.567388356663287 ], [ 9423199.051256325095892, 3284305.54683894244954 ], [ 9423112.652554182335734, 3285443.129750482272357 ], [ 9423011.892533291131258, 3286792.920411893632263 ], [ 9423542.75866280682385, 3289000.205897771287709 ], [ 9425526.521567836403847, 3293275.075256496667862 ], [ 9426979.418343350291252, 3294113.284934678114951 ], [ 9427535.354956798255444, 3295714.382381407078356 ], [ 9427541.021226646378636, 3295771.989458200521767 ], [ 9427450.863793862983584, 3296095.495540544390678 ], [ 9427317.377829995006323, 3296456.692854539025575 ], [ 9426979.418343350291252, 3296767.615582252386957 ], [ 9426371.481236444786191, 3297515.577091750688851 ], [ 9426062.638828430324793, 3298627.409760607872158 ], [ 9425877.333383619785309, 3299584.821225456893444 ], [ 9424611.079510753974319, 3300820.190857520326972 ], [ 9422850.677785065025091, 3303198.277399242855608 ], [ 9422078.571765024214983, 3304680.720957718789577 ], [ 9421646.19239380210638, 3305545.479700163472444 ], [ 9420966.739096166566014, 3305916.090589782688767 ], [ 9419978.44339051656425, 3306472.00692421104759 ], [ 9418526.884072842076421, 3306472.00692421104759 ], [ 9417693.009571198374033, 3306904.386295433156192 ], [ 9417044.440514365211129, 3307830.913519481197 ], [ 9416426.755698334425688, 3309313.357077957130969 ], [ 9415438.459992682561278, 3310456.073987615760416 ], [ 9414419.280046230182052, 3310826.684877234976739 ], [ 9413739.826748596504331, 3311784.096342084463686 ], [ 9413956.016434207558632, 3313544.498067774809897 ], [ 9414013.224791914224625, 3314219.016090412158519 ], [ 9414082.101202212274075, 3314850.383184805046767 ], [ 9414156.163068231195211, 3315260.571981218643486 ], [ 9414110.437638213858008, 3315706.394923885818571 ], [ 9413832.479471, 3316756.459111140109599 ], [ 9413245.678895769640803, 3317374.143927171826363 ], [ 9412819.159117840230465, 3319430.869701115880162 ], [ 9412459.633519172668457, 3320369.630986523348838 ], [ 9411979.425022905692458, 3321234.674027370288968 ], [ 9411864.828011045232415, 3321890.333032655529678 ], [ 9411649.960901841521263, 3323139.24810489686206 ], [ 9411542.52734724059701, 3323649.55748925358057 ], [ 9411114.666280461475253, 3325156.972609172109514 ], [ 9411083.782039659097791, 3326793.837371656205505 ], [ 9411083.782039659097791, 3328429.795689477585256 ], [ 9411011.191019555553794, 3328617.127354260999709 ], [ 9410640.302276045084, 3329544.349213037639856 ], [ 9410379.555824683979154, 3330367.489971253555268 ], [ 9410280.791778817772865, 3330530.83050864841789 ], [ 9409570.454240381717682, 3331858.852863116655499 ], [ 9408921.885183548554778, 3332476.537679148372263 ], [ 9408360.113898541778326, 3333902.432124976534396 ], [ 9407805.583530163392425, 3334726.305815138854086 ], [ 9407686.51555148512125, 3335163.46662888629362 ], [ 9407853.114704594016075, 3335914.585175949614495 ], [ 9408154.145476000383496, 3336849.364939787425101 ], [ 9408280.895274486392736, 3337467.270207409281284 ], [ 9407948.177053458988667, 3337958.425676544196904 ], [ 9407512.527995087206364, 3338219.815111568663269 ], [ 9406914.409531444311142, 3338282.774949846789241 ], [ 9405802.576862588524818, 3339147.533692291006446 ], [ 9405154.007805753499269, 3340104.945157140493393 ], [ 9404937.818120142444968, 3341155.009344394318759 ], [ 9405246.660528158769011, 3342390.378976457752287 ], [ 9405895.229584991931915, 3342884.526829283218831 ], [ 9406852.641049841418862, 3343780.169812529347837 ], [ 9408088.01068190485239, 3344212.549183751456439 ], [ 9408767.463979540392756, 3344366.970387759618461 ], [ 9410887.3515007738024, 3344071.796175942290574 ], [ 9411226.973909666761756, 3344252.634081976022571 ], [ 9411669.953326215967536, 3344570.42366341361776 ], [ 9411992.557901311665773, 3344883.398251192644238 ], [ 9412310.347482748329639, 3345100.07296580914408 ], [ 9412671.472007108852267, 3345210.817819946445525 ], [ 9413090.376455366611481, 3345191.557845313567668 ], [ 9413345.571119248867035, 3345013.403079962357879 ], [ 9413764.475567506626248, 3344700.4284921833314 ], [ 9413995.595263097435236, 3344324.858986848033965 ], [ 9414357.823111660778522, 3343709.293310609646142 ], [ 9415045.839461470022798, 3343232.37288630893454 ], [ 9416920.90355115942657, 3343008.063792489469051 ], [ 9419329.874333683401346, 3343008.063792489469051 ], [ 9420874.086373763158917, 3342606.56866206927225 ], [ 9422418.298413842916489, 3341556.504474814981222 ], [ 9423221.288674684241414, 3339950.523953132331371 ], [ 9423278.14751591719687, 3339673.006020484492183 ], [ 9423427.917803397402167, 3339118.301252034958452 ], [ 9423721.911330675706267, 3338680.084484959486872 ], [ 9424672.847992358729243, 3337912.164060227572918 ], [ 9425444.954012397676706, 3337109.173799386247993 ], [ 9425352.301289992406964, 3336429.720501751638949 ], [ 9425629.301453683525324, 3335949.586884686723351 ], [ 9425920.733397146686912, 3335838.44758421368897 ], [ 9426202.484177317470312, 3335704.577047779690474 ], [ 9426420.731880279257894, 3335600.978454601019621 ], [ 9427267.124219691380858, 3335564.961759306956083 ], [ 9428131.882962135598063, 3335070.813906481489539 ], [ 9428353.835306763648987, 3335012.908927774522454 ], [ 9428791.126794112846255, 3334897.339034689590335 ], [ 9429089.294426985085011, 3334761.971498465631157 ], [ 9429309.786587797105312, 3334438.769304206129164 ], [ 9429220.541437150910497, 3333947.920975652057678 ], [ 9429116.422094728797674, 3333219.085578708443791 ], [ 9428967.680176986381412, 3332415.87922289269045 ], [ 9428873.104741374030709, 3331611.778936703689396 ], [ 9428771.662228660658002, 3331042.656600475311279 ], [ 9428703.609365627169609, 3330759.103004499338567 ], [ 9428686.596149867400527, 3330549.273343476932496 ], [ 9428794.346516339108348, 3330362.12797013297677 ], [ 9428963.687495866790414, 3330241.580154198221862 ], [ 9429282.058701418340206, 3330197.66688446700573 ], [ 9429588.296585071831942, 3330129.614021432586014 ], [ 9430030.640194794163108, 3330061.561158398166299 ], [ 9430232.011336645111442, 3329974.914174219593406 ], [ 9431251.191283097490668, 3328893.965746164321899 ], [ 9432023.297303136438131, 3328060.091244521085173 ], [ 9433938.120232835412025, 3327843.901558910030872 ], [ 9435945.595884937793016, 3327133.564020473510027 ], [ 9437520.69216581992805, 3327071.795538870617747 ], [ 9439867.894466741010547, 3325589.351980394218117 ], [ 9443801.994422059506178, 3323253.440182192716748 ], [ 9444682.004324056208134, 3322858.952984745614231 ] ] ] ] } }
]
}
