{
"type": "FeatureCollection",
"name": "Homa",
"crs": { "type": "name", "properties": { "name": "urn:ogc:def:crs:EPSG::3857" } },
"features": [
{ "type": "Feature", "properties": { }, "geometry": { "type": "Polygon", "coordinates": [ ] } },
{ "type": "Feature", "properties": { }, "geometry": { "type": "Polygon", "coordinates": [ [ [ 3980103.018357938155532, 1020131.393942168564536 ], [ 3980232.487191755324602, 1020093.561209233594127 ], [ 3980449.958103424403816, 1020028.782639800338075 ], [ 3980605.038826124742627, 1019944.271355424192734 ], [ 3980631.501956124790013, 1019917.808225424145348 ], [ 3980631.501956124790013, 1019880.383708075270988 ], [ 3980631.501956124790013, 1019842.959190726396628 ], [ 3980631.501956124790013, 1019805.534673377522267 ], [ 3980657.965086124837399, 1019779.071543377474882 ], [ 3980695.389603473711759, 1019779.071543377474882 ], [ 3980732.814120822586119, 1019779.071543377474882 ], [ 3980770.238638171460479, 1019779.071543377474882 ], [ 3980807.66315552033484, 1019779.071543377474882 ], [ 3980845.0876728692092, 1019779.071543377474882 ], [ 3980882.51219021808356, 1019779.071543377474882 ], [ 3980919.936707566957921, 1019779.071543377474882 ], [ 3980957.361224915832281, 1019779.071543377474882 ], [ 3980994.785742264706641, 1019779.071543377474882 ], [ 3981032.210259613581002, 1019779.071543377474882 ], [ 3981060.820034212898463, 1019790.051832480006851 ], [ 3981098.244551561772823, 1019790.051832480006851 ], [ 3981135.669068910647184, 1019790.051832480006851 ], [ 3981173.093586259521544, 1019790.051832480006851 ], [ 3981210.518103608395904, 1019790.051832480006851 ], [ 3981247.942620957270265, 1019790.051832480006851 ], [ 3981285.367138306144625, 1019790.051832480006851 ], [ 3981322.791655655018985, 1019790.051832480006851 ], [ 3981360.216173003893346, 1019790.051832480006851 ], [ 3981397.640690352767706, 1019790.051832480006851 ], [ 3981435.065207701642066, 1019790.051832480006851 ], [ 3981472.489725050516427, 1019790.051832480006851 ], [ 3981509.914242399390787, 1019790.051832480006851 ], [ 3981547.338759748265147, 1019790.051832480006851 ], [ 3981584.763277097139508, 1019790.051832480006851 ], [ 3981611.226407097186893, 1019763.588702479959466 ], [ 3981611.226407097186893, 1019726.164185131085105 ], [ 3981611.226407097186893, 1019688.739667782210745 ], [ 3981611.226407097186893, 1019651.315150433336385 ], [ 3981611.226407097186893, 1019613.890633084462024 ], [ 3981648.650924446061254, 1019613.890633084462024 ], [ 3981686.075441794935614, 1019613.890633084462024 ], [ 3981723.499959143809974, 1019613.890633084462024 ], [ 3981760.924476492684335, 1019613.890633084462024 ], [ 3981760.924476492684335, 1019576.466115735587664 ], [ 3981760.924476492684335, 1019539.041598386713304 ], [ 3981760.924476492684335, 1019501.617081037838943 ], [ 3981760.924476492684335, 1019464.192563688964583 ], [ 3981798.348993841558695, 1019464.192563688964583 ], [ 3981835.773511190433055, 1019464.192563688964583 ], [ 3981873.198028539307415, 1019464.192563688964583 ], [ 3981910.622545888181776, 1019464.192563688964583 ], [ 3981948.047063237056136, 1019464.192563688964583 ], [ 3981985.471580585930496, 1019464.192563688964583 ], [ 3982022.896097934804857, 1019464.192563688964583 ], [ 3982060.320615283679217, 1019464.192563688964583 ], [ 3982097.745132632553577, 1019464.192563688964583 ], [ 3982135.169649981427938, 1019464.192563688964583 ], [ 3982172.594167330302298, 1019464.192563688964583 ], [ 3982210.018684679176658, 1019464.192563688964583 ], [ 3982247.443202028051019, 1019464.192563688964583 ], [ 3982284.867719376925379, 1019464.192563688964583 ], [ 3982322.292236725799739, 1019464.192563688964583 ], [ 3982359.7167540746741, 1019464.192563688964583 ], [ 3982397.14127142354846, 1019464.192563688964583 ], [ 3982434.56578877242282, 1019464.192563688964583 ], [ 3982471.990306121297181, 1019464.192563688964583 ], [ 3982509.414823470171541, 1019464.192563688964583 ], [ 3982546.839340819045901, 1019464.192563688964583 ], [ 3982584.263858167920262, 1019464.192563688964583 ], [ 3982621.688375516794622, 1019464.192563688964583 ], [ 3982659.112892865668982, 1019464.192563688964583 ], [ 3982696.537410214543343, 1019464.192563688964583 ], [ 3982733.961927563417703, 1019464.192563688964583 ], [ 3982771.386444912292063, 1019464.192563688964583 ], [ 3982808.810962261166424, 1019464.192563688964583 ], [ 3982846.235479610040784, 1019464.192563688964583 ], [ 3982883.659996958915144, 1019464.192563688964583 ], [ 3982921.084514307789505, 1019464.192563688964583 ], [ 3982958.509031656663865, 1019464.192563688964583 ], [ 3982995.933549005538225, 1019464.192563688964583 ], [ 3983033.358066354412585, 1019464.192563688964583 ], [ 3983070.782583703286946, 1019464.192563688964583 ], [ 3983108.207101052161306, 1019464.192563688964583 ], [ 3983145.631618401035666, 1019464.192563688964583 ], [ 3983183.056135749910027, 1019464.192563688964583 ], [ 3983220.480653098784387, 1019464.192563688964583 ], [ 3983257.905170447658747, 1019464.192563688964583 ], [ 3983295.329687796533108, 1019464.192563688964583 ], [ 3983332.754205145407468, 1019464.192563688964583 ], [ 3983370.178722494281828, 1019464.192563688964583 ], [ 3983407.603239843156189, 1019464.192563688964583 ], [ 3983434.066369843203574, 1019437.729433688917197 ], [ 3983434.066369843203574, 1019400.304916340042837 ], [ 3983434.066369843203574, 1019362.880398991168477 ], [ 3983434.066369843203574, 1019325.455881642294116 ], [ 3983460.52949984325096, 1019298.992751642246731 ], [ 3983497.95401719212532, 1019298.992751642246731 ], [ 3983535.378534540999681, 1019298.992751642246731 ], [ 3983572.803051889874041, 1019298.992751642246731 ], [ 3983599.266181889921427, 1019272.529621642199345 ], [ 3983599.266181889921427, 1019235.105104293324985 ], [ 3983599.266181889921427, 1019197.680586944450624 ], [ 3983599.266181889921427, 1019160.256069595576264 ], [ 3983599.266181889921427, 1019122.831552246701904 ], [ 3983636.690699238795787, 1019122.831552246701904 ], [ 3983674.115216587670147, 1019122.831552246701904 ], [ 3983711.539733936544508, 1019122.831552246701904 ], [ 3983748.964251285418868, 1019122.831552246701904 ], [ 3983786.388768634293228, 1019122.831552246701904 ], [ 3983823.813285983167589, 1019122.831552246701904 ], [ 3983861.237803332041949, 1019122.831552246701904 ], [ 3983898.662320680916309, 1019122.831552246701904 ], [ 3983936.08683802979067, 1019122.831552246701904 ], [ 3983973.51135537866503, 1019122.831552246701904 ], [ 3984010.93587272753939, 1019122.831552246701904 ], [ 3984037.399002727586776, 1019149.294682246749289 ], [ 3984037.399002727586776, 1019186.71919959562365 ], [ 3984037.399002727586776, 1019224.14371694449801 ], [ 3984037.399002727586776, 1019261.56823429337237 ], [ 3984063.862132727634162, 1019288.031364293419756 ], [ 3984101.286650076508522, 1019288.031364293419756 ], [ 3984138.711167425382882, 1019288.031364293419756 ], [ 3984176.135684774257243, 1019288.031364293419756 ], [ 3984213.560202123131603, 1019288.031364293419756 ], [ 3984240.023332123178989, 1019314.494494293467142 ], [ 3984240.023332123178989, 1019351.919011642341502 ], [ 3984240.023332123178989, 1019389.343528991215862 ], [ 3984240.023332123178989, 1019426.768046340090223 ], [ 3984266.486462123226374, 1019453.231176340137608 ], [ 3984303.910979472100735, 1019453.231176340137608 ], [ 3984341.335496820975095, 1019453.231176340137608 ], [ 3984378.760014169849455, 1019453.231176340137608 ], [ 3984405.223144169896841, 1019479.694306340184994 ], [ 3984405.223144169896841, 1019517.118823689059354 ], [ 3984405.223144169896841, 1019554.543341037933715 ], [ 3984405.223144169896841, 1019591.967858386808075 ], [ 3984405.223144169896841, 1019629.392375735682435 ], [ 3984442.647661518771201, 1019629.392375735682435 ], [ 3984480.072178867645562, 1019629.392375735682435 ], [ 3984517.496696216519922, 1019629.392375735682435 ], [ 3984554.921213565394282, 1019629.392375735682435 ], [ 3984554.921213565394282, 1019666.816893084556796 ], [ 3984554.921213565394282, 1019704.241410433431156 ], [ 3984554.921213565394282, 1019741.665927782305516 ], [ 3984554.921213565394282, 1019779.090445131179877 ], [ 3984592.345730914268643, 1019779.090445131179877 ], [ 3984629.770248263143003, 1019779.090445131179877 ], [ 3984667.194765612017363, 1019779.090445131179877 ], [ 3984704.619282960891724, 1019779.090445131179877 ], [ 3984704.619282960891724, 1019816.514962480054237 ], [ 3984704.619282960891724, 1019853.939479828928597 ], [ 3984704.619282960891724, 1019891.363997177802958 ], [ 3984704.619282960891724, 1019928.788514526677318 ], [ 3984731.082412960939109, 1019955.251644526724704 ], [ 3984768.50693030981347, 1019955.251644526724704 ], [ 3984805.93144765868783, 1019955.251644526724704 ], [ 3984843.35596500756219, 1019955.251644526724704 ], [ 3984880.780482356436551, 1019955.251644526724704 ], [ 3984880.780482356436551, 1019992.676161875599064 ], [ 3984880.780482356436551, 1020030.100679224473424 ], [ 3984880.780482356436551, 1020067.525196573347785 ], [ 3984880.780482356436551, 1020104.949713922222145 ], [ 3984880.780482356436551, 1020142.374231271096505 ], [ 3984880.780482356436551, 1020179.798748619970866 ], [ 3984880.780482356436551, 1020217.223265968845226 ], [ 3984880.780482356436551, 1020254.647783317719586 ], [ 3984907.243612356483936, 1020281.110913317766972 ], [ 3984944.668129705358297, 1020281.110913317766972 ], [ 3984982.092647054232657, 1020281.110913317766972 ], [ 3985019.517164403107017, 1020281.110913317766972 ], [ 3985056.941681751981378, 1020281.110913317766972 ], [ 3985094.366199100855738, 1020281.110913317766972 ], [ 3985131.790716449730098, 1020281.110913317766972 ], [ 3985169.215233798604459, 1020281.110913317766972 ], [ 3985206.639751147478819, 1020281.110913317766972 ], [ 3985244.064268496353179, 1020281.110913317766972 ], [ 3985281.48878584522754, 1020281.110913317766972 ], [ 3985318.9133031941019, 1020281.110913317766972 ], [ 3985356.33782054297626, 1020281.110913317766972 ], [ 3985393.762337891850621, 1020281.110913317766972 ], [ 3985393.762337891850621, 1020243.686395968892612 ], [ 3985393.762337891850621, 1020206.261878620018251 ], [ 3985393.762337891850621, 1020168.837361271143891 ], [ 3985393.762337891850621, 1020131.412843922269531 ], [ 3985431.186855240724981, 1020131.412843922269531 ], [ 3985468.611372589599341, 1020131.412843922269531 ], [ 3985506.035889938473701, 1020131.412843922269531 ], [ 3985543.460407287348062, 1020131.412843922269531 ], [ 3985569.923537287395447, 1020104.949713922222145 ], [ 3985569.923537287395447, 1020067.525196573347785 ], [ 3985569.923537287395447, 1020030.100679224473424 ], [ 3985569.923537287395447, 1019992.676161875599064 ], [ 3985569.923537287395447, 1019955.251644526724704 ], [ 3985569.923537287395447, 1019917.827127177850343 ], [ 3985569.923537287395447, 1019880.402609828975983 ], [ 3985569.923537287395447, 1019842.978092480101623 ], [ 3985569.923537287395447, 1019805.553575131227262 ], [ 3985569.923537287395447, 1019768.129057782352902 ], [ 3985569.923537287395447, 1019730.704540433478542 ], [ 3985569.923537287395447, 1019693.280023084604181 ], [ 3985569.923537287395447, 1019655.855505735729821 ], [ 3985569.923537287395447, 1019618.430988386855461 ], [ 3985607.348054636269808, 1019618.430988386855461 ], [ 3985644.772571985144168, 1019618.430988386855461 ], [ 3985682.197089334018528, 1019618.430988386855461 ], [ 3985708.660219334065914, 1019591.967858386808075 ], [ 3985708.660219334065914, 1019554.543341037933715 ], [ 3985708.660219334065914, 1019517.118823689059354 ], [ 3985708.660219334065914, 1019479.694306340184994 ], [ 3985735.1233493341133, 1019453.231176340137608 ], [ 3985772.54786668298766, 1019453.231176340137608 ], [ 3985809.97238403186202, 1019453.231176340137608 ], [ 3985847.396901380736381, 1019453.231176340137608 ], [ 3985884.821418729610741, 1019453.231176340137608 ], [ 3985922.245936078485101, 1019453.231176340137608 ], [ 3985959.670453427359462, 1019453.231176340137608 ], [ 3985997.094970776233822, 1019453.231176340137608 ], [ 3986034.519488125108182, 1019453.231176340137608 ], [ 3986071.944005473982543, 1019453.231176340137608 ], [ 3986109.368522822856903, 1019453.231176340137608 ], [ 3986146.793040171731263, 1019453.231176340137608 ], [ 3986184.217557520605624, 1019453.231176340137608 ], [ 3986221.642074869479984, 1019453.231176340137608 ], [ 3986259.066592218354344, 1019453.231176340137608 ], [ 3986296.491109567228705, 1019453.231176340137608 ], [ 3986333.915626916103065, 1019453.231176340137608 ], [ 3986360.378756916150451, 1019479.694306340184994 ], [ 3986360.378756916150451, 1019517.118823689059354 ], [ 3986360.378756916150451, 1019554.543341037933715 ], [ 3986360.378756916150451, 1019591.967858386808075 ], [ 3986360.378756916150451, 1019629.392375735682435 ], [ 3986397.803274265024811, 1019629.392375735682435 ], [ 3986435.227791613899171, 1019629.392375735682435 ], [ 3986472.652308962773532, 1019629.392375735682435 ], [ 3986510.076826311647892, 1019629.392375735682435 ], [ 3986547.501343660522252, 1019629.392375735682435 ], [ 3986547.501343660522252, 1019666.816893084556796 ], [ 3986547.501343660522252, 1019704.241410433431156 ], [ 3986547.501343660522252, 1019741.665927782305516 ], [ 3986547.501343660522252, 1019779.090445131179877 ], [ 3986584.925861009396613, 1019779.090445131179877 ], [ 3986622.350378358270973, 1019779.090445131179877 ], [ 3986659.774895707145333, 1019779.090445131179877 ], [ 3986697.199413056019694, 1019779.090445131179877 ], [ 3986734.623930404894054, 1019779.090445131179877 ], [ 3986772.048447753768414, 1019779.090445131179877 ], [ 3986809.472965102642775, 1019779.090445131179877 ], [ 3986846.897482451517135, 1019779.090445131179877 ], [ 3986884.321999800391495, 1019779.090445131179877 ], [ 3986921.746517149265856, 1019779.090445131179877 ], [ 3986959.171034498140216, 1019779.090445131179877 ], [ 3986996.595551847014576, 1019779.090445131179877 ], [ 3987034.020069195888937, 1019779.090445131179877 ], [ 3987071.444586544763297, 1019779.090445131179877 ], [ 3987108.869103893637657, 1019779.090445131179877 ], [ 3987146.293621242512017, 1019779.090445131179877 ], [ 3987183.718138591386378, 1019779.090445131179877 ], [ 3987221.142655940260738, 1019779.090445131179877 ], [ 3987258.567173289135098, 1019779.090445131179877 ], [ 3987295.991690638009459, 1019779.090445131179877 ], [ 3987333.416207986883819, 1019779.090445131179877 ], [ 3987370.840725335758179, 1019779.090445131179877 ], [ 3987408.26524268463254, 1019779.090445131179877 ], [ 3987445.6897600335069, 1019779.090445131179877 ], [ 3987483.11427738238126, 1019779.090445131179877 ], [ 3987520.538794731255621, 1019779.090445131179877 ], [ 3987557.963312080129981, 1019779.090445131179877 ], [ 3987595.387829429004341, 1019779.090445131179877 ], [ 3987632.812346777878702, 1019779.090445131179877 ], [ 3987670.236864126753062, 1019779.090445131179877 ], [ 3987707.661381475627422, 1019779.090445131179877 ], [ 3987745.085898824501783, 1019779.090445131179877 ], [ 3987782.510416173376143, 1019779.090445131179877 ], [ 3987819.934933522250503, 1019779.090445131179877 ], [ 3987857.359450871124864, 1019779.090445131179877 ], [ 3987894.783968219999224, 1019779.090445131179877 ], [ 3987932.208485568873584, 1019779.090445131179877 ], [ 3987969.633002917747945, 1019779.090445131179877 ], [ 3988007.057520266622305, 1019779.090445131179877 ], [ 3988007.057520266622305, 1019741.665927782305516 ], [ 3988007.057520266622305, 1019704.241410433431156 ], [ 3988007.057520266622305, 1019666.816893084556796 ], [ 3988007.057520266622305, 1019629.392375735682435 ], [ 3988007.057520266622305, 1019591.967858386808075 ], [ 3988007.057520266622305, 1019554.543341037933715 ], [ 3988007.057520266622305, 1019517.118823689059354 ], [ 3988007.057520266622305, 1019479.694306340184994 ], [ 3988007.057520266622305, 1019442.269788991310634 ], [ 3987969.633002917747945, 1019442.269788991310634 ], [ 3987932.208485568873584, 1019442.269788991310634 ], [ 3987894.783968219999224, 1019442.269788991310634 ], [ 3987857.359450871124864, 1019442.269788991310634 ], [ 3987857.359450871124864, 1019404.845271642436273 ], [ 3987857.359450871124864, 1019367.420754293561913 ], [ 3987857.359450871124864, 1019329.996236944687553 ], [ 3987857.359450871124864, 1019292.571719595813192 ], [ 3987857.359450871124864, 1019255.147202246938832 ], [ 3987857.359450871124864, 1019217.722684898064472 ], [ 3987857.359450871124864, 1019180.298167549190111 ], [ 3987857.359450871124864, 1019142.873650200315751 ], [ 3987830.896320871077478, 1019116.410520200268365 ], [ 3987793.471803522203118, 1019116.410520200268365 ], [ 3987756.047286173328757, 1019116.410520200268365 ], [ 3987718.622768824454397, 1019116.410520200268365 ], [ 3987692.159638824407011, 1019089.94739020022098 ], [ 3987692.159638824407011, 1019052.522872851346619 ], [ 3987692.159638824407011, 1019015.098355502472259 ], [ 3987692.159638824407011, 1018977.673838153597899 ], [ 3987692.159638824407011, 1018940.249320804723538 ], [ 3987692.159638824407011, 1018902.824803455849178 ], [ 3987692.159638824407011, 1018865.400286106974818 ], [ 3987692.159638824407011, 1018827.975768758100457 ], [ 3987692.159638824407011, 1018790.551251409226097 ], [ 3987692.159638824407011, 1018753.126734060351737 ], [ 3987692.159638824407011, 1018715.702216711477377 ], [ 3987692.159638824407011, 1018678.277699362603016 ], [ 3987692.159638824407011, 1018640.853182013728656 ], [ 3987665.696508824359626, 1018614.39005201368127 ], [ 3987628.271991475485265, 1018614.39005201368127 ], [ 3987590.847474126610905, 1018614.39005201368127 ], [ 3987553.422956777736545, 1018614.39005201368127 ], [ 3987553.422956777736545, 1018576.96553466480691 ], [ 3987553.422956777736545, 1018539.54101731593255 ], [ 3987553.422956777736545, 1018502.116499967058189 ], [ 3987553.422956777736545, 1018464.691982618183829 ], [ 3987526.959826777689159, 1018438.228852618136443 ], [ 3987489.535309428814799, 1018438.228852618136443 ], [ 3987452.110792079940438, 1018438.228852618136443 ], [ 3987414.686274731066078, 1018438.228852618136443 ], [ 3987377.261757382191718, 1018438.228852618136443 ], [ 3987377.261757382191718, 1018400.804335269262083 ], [ 3987377.261757382191718, 1018363.379817920387723 ], [ 3987377.261757382191718, 1018325.955300571513362 ], [ 3987377.261757382191718, 1018288.530783222639002 ], [ 3987339.837240033317357, 1018288.530783222639002 ], [ 3987302.412722684442997, 1018288.530783222639002 ], [ 3987264.988205335568637, 1018288.530783222639002 ], [ 3987227.563687986694276, 1018288.530783222639002 ], [ 3987190.139170637819916, 1018288.530783222639002 ], [ 3987190.139170637819916, 1018251.106265873764642 ], [ 3987190.139170637819916, 1018213.681748524890281 ], [ 3987190.139170637819916, 1018176.257231176015921 ], [ 3987190.139170637819916, 1018138.832713827141561 ], [ 3987190.139170637819916, 1018101.4081964782672 ], [ 3987190.139170637819916, 1018063.98367912939284 ], [ 3987190.139170637819916, 1018026.55916178051848 ], [ 3987190.139170637819916, 1017989.134644431644119 ], [ 3987190.139170637819916, 1017951.710127082769759 ], [ 3987152.714653288945556, 1017951.710127082769759 ], [ 3987115.290135940071195, 1017951.710127082769759 ], [ 3987077.865618591196835, 1017951.710127082769759 ], [ 3987051.402488591149449, 1017925.246997082722373 ], [ 3987051.402488591149449, 1017887.822479733848013 ], [ 3987051.402488591149449, 1017850.397962384973653 ], [ 3987051.402488591149449, 1017812.973445036099292 ], [ 3987051.402488591149449, 1017775.548927687224932 ], [ 3987051.402488591149449, 1017738.124410338350572 ], [ 3987051.402488591149449, 1017700.699892989476211 ], [ 3987051.402488591149449, 1017663.275375640601851 ], [ 3987051.402488591149449, 1017625.850858291727491 ], [ 3987051.402488591149449, 1017588.42634094285313 ], [ 3987051.402488591149449, 1017551.00182359397877 ], [ 3987051.402488591149449, 1017513.57730624510441 ], [ 3987051.402488591149449, 1017476.152788896230049 ], [ 3987051.402488591149449, 1017438.728271547355689 ], [ 3987051.402488591149449, 1017401.303754198481329 ], [ 3987051.402488591149449, 1017363.879236849606968 ], [ 3987051.402488591149449, 1017326.454719500732608 ], [ 3987051.402488591149449, 1017289.030202151858248 ], [ 3987051.402488591149449, 1017251.605684802983887 ], [ 3987051.402488591149449, 1017214.181167454109527 ], [ 3987051.402488591149449, 1017176.756650105235167 ], [ 3987051.402488591149449, 1017139.332132756360807 ], [ 3987051.402488591149449, 1017101.907615407486446 ], [ 3987051.402488591149449, 1017064.483098058612086 ], [ 3987051.402488591149449, 1017027.058580709737726 ], [ 3987051.402488591149449, 1016989.634063360863365 ], [ 3987024.939358591102064, 1016963.17093336081598 ], [ 3986987.514841242227703, 1016963.17093336081598 ], [ 3986950.090323893353343, 1016963.17093336081598 ], [ 3986912.665806544478983, 1016963.17093336081598 ], [ 3986875.241289195604622, 1016963.17093336081598 ], [ 3986875.241289195604622, 1016925.746416011941619 ], [ 3986875.241289195604622, 1016888.321898663067259 ], [ 3986875.241289195604622, 1016850.897381314192899 ], [ 3986875.241289195604622, 1016813.472863965318538 ], [ 3986875.241289195604622, 1016776.048346616444178 ], [ 3986875.241289195604622, 1016738.623829267569818 ], [ 3986875.241289195604622, 1016701.199311918695457 ], [ 3986875.241289195604622, 1016663.774794569821097 ], [ 3986875.241289195604622, 1016626.350277220946737 ], [ 3986875.241289195604622, 1016588.925759872072376 ], [ 3986875.241289195604622, 1016551.501242523198016 ], [ 3986875.241289195604622, 1016514.076725174323656 ], [ 3986875.241289195604622, 1016476.652207825449295 ], [ 3986875.241289195604622, 1016439.227690476574935 ], [ 3986875.241289195604622, 1016401.803173127700575 ], [ 3986875.241289195604622, 1016364.378655778826214 ], [ 3986875.241289195604622, 1016326.954138429951854 ], [ 3986875.241289195604622, 1016289.529621081077494 ], [ 3986875.241289195604622, 1016252.105103732203133 ], [ 3986875.241289195604622, 1016214.680586383328773 ], [ 3987279.947243140544742, 1015601.548304158379324 ], [ 3987498.939120624214411, 1015204.047356915078126 ], [ 3987321.615106698591262, 1014859.250663170241751 ], [ 3986937.413076525554061, 1014268.170616750488989 ], [ 3986434.995037068612874, 1013420.955883548827842 ], [ 3985666.590976723004133, 1012721.511161952163093 ], [ 3984888.335582270286977, 1012159.985117853386328 ], [ 3984425.322879241779447, 1011834.89109232253395 ], [ 3984415.471545134671032, 1011391.581057507661171 ], [ 3984560.364278580062091, 1011013.755448066047393 ], [ 3984574.716245416086167, 1010976.330930717173032 ], [ 3984574.716245416086167, 1010938.906413368298672 ], [ 3984574.716245416086167, 1010901.481896019424312 ], [ 3984574.716245416086167, 1010864.057378670549951 ], [ 3984574.716245416086167, 1010826.632861321675591 ], [ 3984574.716245416086167, 1010789.208343972801231 ], [ 3984574.716245416086167, 1010751.783826623926871 ], [ 3984574.716245416086167, 1010714.35930927505251 ], [ 3984574.716245416086167, 1010676.93479192617815 ], [ 3984537.291728067211807, 1010676.93479192617815 ], [ 3984499.867210718337446, 1010676.93479192617815 ], [ 3984462.442693369463086, 1010676.93479192617815 ], [ 3984425.018176020588726, 1010676.93479192617815 ], [ 3984387.593658671714365, 1010676.93479192617815 ], [ 3984350.169141322840005, 1010676.93479192617815 ], [ 3984312.744623973965645, 1010676.93479192617815 ], [ 3984275.320106625091285, 1010676.93479192617815 ], [ 3984237.895589276216924, 1010676.93479192617815 ], [ 3984200.471071927342564, 1010676.93479192617815 ], [ 3984163.046554578468204, 1010676.93479192617815 ], [ 3984125.622037229593843, 1010676.93479192617815 ], [ 3984088.197519880719483, 1010676.93479192617815 ], [ 3984050.773002531845123, 1010676.93479192617815 ], [ 3984013.348485182970762, 1010676.93479192617815 ], [ 3983975.923967834096402, 1010676.93479192617815 ], [ 3983938.499450485222042, 1010676.93479192617815 ], [ 3983912.036320485174656, 1010650.471661926130764 ], [ 3983912.036320485174656, 1010613.047144577256404 ], [ 3983912.036320485174656, 1010575.622627228382044 ], [ 3983912.036320485174656, 1010538.198109879507683 ], [ 3983885.57319048512727, 1010511.734979879460298 ], [ 3983848.14867313625291, 1010511.734979879460298 ], [ 3983810.72415578737855, 1010511.734979879460298 ], [ 3983773.299638438504189, 1010511.734979879460298 ], [ 3983746.836508438456804, 1010485.271849879412912 ], [ 3983746.836508438456804, 1010447.847332530538552 ], [ 3983746.836508438456804, 1010410.422815181664191 ], [ 3983746.836508438456804, 1010372.998297832789831 ], [ 3983746.836508438456804, 1010335.573780483915471 ], [ 3983746.836508438456804, 1010298.14926313504111 ], [ 3983746.836508438456804, 1010260.72474578616675 ], [ 3983746.836508438456804, 1010223.30022843729239 ], [ 3983746.836508438456804, 1010185.875711088418029 ], [ 3983746.836508438456804, 1010148.451193739543669 ], [ 3983746.836508438456804, 1010111.026676390669309 ], [ 3983746.836508438456804, 1010073.602159041794948 ], [ 3983746.836508438456804, 1010036.177641692920588 ], [ 3983746.836508438456804, 1009998.753124344046228 ], [ 3983709.411991089582443, 1009998.753124344046228 ], [ 3983671.987473740708083, 1009998.753124344046228 ], [ 3983634.562956391833723, 1009998.753124344046228 ], [ 3983597.138439042959362, 1009998.753124344046228 ], [ 3983559.713921694085002, 1009998.753124344046228 ], [ 3983522.289404345210642, 1009998.753124344046228 ], [ 3983484.864886996336281, 1009998.753124344046228 ], [ 3983447.440369647461921, 1009998.753124344046228 ], [ 3983410.015852298587561, 1009998.753124344046228 ], [ 3983372.5913349497132, 1009998.753124344046228 ], [ 3983335.16681760083884, 1009998.753124344046228 ], [ 3983297.74230025196448, 1009998.753124344046228 ], [ 3983260.317782903090119, 1009998.753124344046228 ], [ 3983222.893265554215759, 1009998.753124344046228 ], [ 3983185.468748205341399, 1009998.753124344046228 ], [ 3983148.044230856467038, 1009998.753124344046228 ], [ 3983110.619713507592678, 1009998.753124344046228 ], [ 3983073.195196158718318, 1009998.753124344046228 ], [ 3983035.770678809843957, 1009998.753124344046228 ], [ 3982998.346161460969597, 1009998.753124344046228 ], [ 3982960.921644112095237, 1009998.753124344046228 ], [ 3982923.497126763220876, 1009998.753124344046228 ], [ 3982886.072609414346516, 1009998.753124344046228 ], [ 3982848.648092065472156, 1009998.753124344046228 ], [ 3982811.223574716597795, 1009998.753124344046228 ], [ 3982773.799057367723435, 1009998.753124344046228 ], [ 3982747.335927367676049, 1010025.216254344093613 ], [ 3982747.335927367676049, 1010062.640771692967974 ], [ 3982747.335927367676049, 1010100.065289041842334 ], [ 3982747.335927367676049, 1010137.489806390716694 ], [ 3982747.335927367676049, 1010174.914323739591055 ], [ 3982709.911410018801689, 1010174.914323739591055 ], [ 3982672.486892669927329, 1010174.914323739591055 ], [ 3982635.062375321052969, 1010174.914323739591055 ], [ 3982597.637857972178608, 1010174.914323739591055 ], [ 3982560.213340623304248, 1010174.914323739591055 ], [ 3982522.788823274429888, 1010174.914323739591055 ], [ 3982485.364305925555527, 1010174.914323739591055 ], [ 3982447.939788576681167, 1010174.914323739591055 ], [ 3982410.515271227806807, 1010174.914323739591055 ], [ 3982373.090753878932446, 1010174.914323739591055 ], [ 3982335.666236530058086, 1010174.914323739591055 ], [ 3982298.241719181183726, 1010174.914323739591055 ], [ 3982260.817201832309365, 1010174.914323739591055 ], [ 3982223.392684483435005, 1010174.914323739591055 ], [ 3982185.968167134560645, 1010174.914323739591055 ], [ 3982148.543649785686284, 1010174.914323739591055 ], [ 3982111.119132436811924, 1010174.914323739591055 ], [ 3982073.694615087937564, 1010174.914323739591055 ], [ 3982036.270097739063203, 1010174.914323739591055 ], [ 3981998.845580390188843, 1010174.914323739591055 ], [ 3981961.421063041314483, 1010174.914323739591055 ], [ 3981923.996545692440122, 1010174.914323739591055 ], [ 3981886.572028343565762, 1010174.914323739591055 ], [ 3981849.147510994691402, 1010174.914323739591055 ], [ 3981811.722993645817041, 1010174.914323739591055 ], [ 3981774.298476296942681, 1010174.914323739591055 ], [ 3981774.298476296942681, 1010137.489806390716694 ], [ 3981774.298476296942681, 1010100.065289041842334 ], [ 3981774.298476296942681, 1010062.640771692967974 ], [ 3981774.298476296942681, 1010025.216254344093613 ], [ 3981774.298476296942681, 1009987.791736995219253 ], [ 3981774.298476296942681, 1009950.367219646344893 ], [ 3981774.298476296942681, 1009912.942702297470532 ], [ 3981774.298476296942681, 1009875.518184948596172 ], [ 3981774.298476296942681, 1009838.093667599721812 ], [ 3981774.298476296942681, 1009800.669150250847451 ], [ 3981774.298476296942681, 1009763.244632901973091 ], [ 3981774.298476296942681, 1009725.820115553098731 ], [ 3981774.298476296942681, 1009688.39559820422437 ], [ 3981774.298476296942681, 1009650.97108085535001 ], [ 3981774.298476296942681, 1009613.54656350647565 ], [ 3981774.298476296942681, 1009576.122046157601289 ], [ 3981774.298476296942681, 1009538.697528808726929 ], [ 3981811.722993645817041, 1009538.697528808726929 ], [ 3981849.147510994691402, 1009538.697528808726929 ], [ 3981886.572028343565762, 1009538.697528808726929 ], [ 3981923.996545692440122, 1009538.697528808726929 ], [ 3981950.459675692487508, 1009512.234398808679543 ], [ 3981950.459675692487508, 1009474.809881459805183 ], [ 3981950.459675692487508, 1009437.385364110930823 ], [ 3981950.459675692487508, 1009399.960846762056462 ], [ 3981950.459675692487508, 1009362.536329413182102 ], [ 3981950.459675692487508, 1009325.111812064307742 ], [ 3981950.459675692487508, 1009287.687294715433381 ], [ 3981950.459675692487508, 1009250.262777366559021 ], [ 3981950.459675692487508, 1009212.838260017684661 ], [ 3981950.459675692487508, 1009175.413742668810301 ], [ 3981913.035158343613148, 1009175.413742668810301 ], [ 3981875.610640994738787, 1009175.413742668810301 ], [ 3981838.186123645864427, 1009175.413742668810301 ], [ 3981800.761606296990067, 1009175.413742668810301 ], [ 3981763.337088948115706, 1009175.413742668810301 ], [ 3981763.337088948115706, 1009137.98922531993594 ], [ 3981763.337088948115706, 1009100.56470797106158 ], [ 3981763.337088948115706, 1009063.14019062218722 ], [ 3981763.337088948115706, 1009025.715673273312859 ], [ 3981763.337088948115706, 1008988.291155924438499 ], [ 3981763.337088948115706, 1008950.866638575564139 ], [ 3981763.337088948115706, 1008913.442121226689778 ], [ 3981763.337088948115706, 1008876.017603877815418 ], [ 3981763.337088948115706, 1008838.593086528941058 ], [ 3981725.912571599241346, 1008838.593086528941058 ], [ 3981688.488054250366986, 1008838.593086528941058 ], [ 3981651.063536901492625, 1008838.593086528941058 ], [ 3981613.639019552618265, 1008838.593086528941058 ], [ 3981576.214502203743905, 1008838.593086528941058 ], [ 3981538.789984854869545, 1008838.593086528941058 ], [ 3981501.365467505995184, 1008838.593086528941058 ], [ 3981463.940950157120824, 1008838.593086528941058 ], [ 3981437.477820157073438, 1008865.056216528988443 ], [ 3981437.477820157073438, 1008902.480733877862804 ], [ 3981437.477820157073438, 1008939.905251226737164 ], [ 3981437.477820157073438, 1008977.329768575611524 ], [ 3981411.014690157026052, 1009003.79289857565891 ], [ 3981373.590172808151692, 1009003.79289857565891 ], [ 3981336.165655459277332, 1009003.79289857565891 ], [ 3981298.741138110402972, 1009003.79289857565891 ], [ 3981261.316620761528611, 1009003.79289857565891 ], [ 3981223.892103412654251, 1009003.79289857565891 ], [ 3981186.467586063779891, 1009003.79289857565891 ], [ 3981149.04306871490553, 1009003.79289857565891 ], [ 3981122.579938714858145, 1009030.256028575706296 ], [ 3981122.579938714858145, 1009067.680545924580656 ], [ 3981122.579938714858145, 1009105.105063273455016 ], [ 3981122.579938714858145, 1009142.529580622329377 ], [ 3981096.116808714810759, 1009168.992710622376762 ], [ 3981058.692291365936399, 1009168.992710622376762 ], [ 3981021.267774017062038, 1009168.992710622376762 ], [ 3980983.843256668187678, 1009168.992710622376762 ], [ 3980946.418739319313318, 1009168.992710622376762 ], [ 3980946.418739319313318, 1009131.568193273502402 ], [ 3980946.418739319313318, 1009094.143675924628042 ], [ 3980946.418739319313318, 1009056.719158575753681 ], [ 3980946.418739319313318, 1009019.294641226879321 ], [ 3980908.994221970438957, 1009019.294641226879321 ], [ 3980871.569704621564597, 1009019.294641226879321 ], [ 3980834.145187272690237, 1009019.294641226879321 ], [ 3980796.720669923815876, 1009019.294641226879321 ], [ 3980759.296152574941516, 1009019.294641226879321 ], [ 3980721.871635226067156, 1009019.294641226879321 ], [ 3980684.447117877192795, 1009019.294641226879321 ], [ 3980647.022600528318435, 1009019.294641226879321 ], [ 3980620.559470528271049, 1009045.757771226926707 ], [ 3980620.559470528271049, 1009083.182288575801067 ], [ 3980620.559470528271049, 1009120.606805924675427 ], [ 3980620.559470528271049, 1009158.031323273549788 ], [ 3980594.096340528223664, 1009184.494453273597173 ], [ 3980556.671823179349303, 1009184.494453273597173 ], [ 3980519.247305830474943, 1009184.494453273597173 ], [ 3980481.822788481600583, 1009184.494453273597173 ], [ 3980444.398271132726222, 1009184.494453273597173 ], [ 3980444.398271132726222, 1009221.918970622471534 ], [ 3980444.398271132726222, 1009259.343487971345894 ], [ 3980444.398271132726222, 1009296.768005320220254 ], [ 3980444.398271132726222, 1009334.192522669094615 ], [ 3980444.398271132726222, 1009371.617040017968975 ], [ 3980444.398271132726222, 1009409.041557366843335 ], [ 3980444.398271132726222, 1009446.466074715717696 ], [ 3980444.398271132726222, 1009483.890592064592056 ], [ 3980444.398271132726222, 1009521.315109413466416 ], [ 3980406.973753783851862, 1009521.315109413466416 ], [ 3980369.549236434977502, 1009521.315109413466416 ], [ 3980332.124719086103141, 1009521.315109413466416 ], [ 3980294.700201737228781, 1009521.315109413466416 ], [ 3980257.275684388354421, 1009521.315109413466416 ], [ 3980219.85116703948006, 1009521.315109413466416 ], [ 3980182.4266496906057, 1009521.315109413466416 ], [ 3980145.00213234173134, 1009521.315109413466416 ], [ 3980107.577614992856979, 1009521.315109413466416 ], [ 3980070.153097643982619, 1009521.315109413466416 ], [ 3980032.728580295108259, 1009521.315109413466416 ], [ 3979995.304062946233898, 1009521.315109413466416 ], [ 3979968.840932946186513, 1009494.851979413419031 ], [ 3979968.840932946186513, 1009457.42746206454467 ], [ 3979968.840932946186513, 1009420.00294471567031 ], [ 3979968.840932946186513, 1009382.57842736679595 ], [ 3979942.377802946139127, 1009356.115297366748564 ], [ 3979904.953285597264767, 1009356.115297366748564 ], [ 3979867.528768248390406, 1009356.115297366748564 ], [ 3979830.104250899516046, 1009356.115297366748564 ], [ 3979803.64112089946866, 1009329.652167366701178 ], [ 3979803.64112089946866, 1009292.227650017826818 ], [ 3979803.64112089946866, 1009254.803132668952458 ], [ 3979803.64112089946866, 1009217.378615320078097 ], [ 3979777.177990899421275, 1009190.915485320030712 ], [ 3979739.753473550546914, 1009190.915485320030712 ], [ 3979702.328956201672554, 1009190.915485320030712 ], [ 3979664.904438852798194, 1009190.915485320030712 ], [ 3979627.479921503923833, 1009190.915485320030712 ], [ 3979590.055404155049473, 1009190.915485320030712 ], [ 3979552.630886806175113, 1009190.915485320030712 ], [ 3979515.206369457300752, 1009190.915485320030712 ], [ 3979477.781852108426392, 1009190.915485320030712 ], [ 3979440.357334759552032, 1009190.915485320030712 ], [ 3979402.932817410677671, 1009190.915485320030712 ], [ 3979365.508300061803311, 1009190.915485320030712 ], [ 3979328.083782712928951, 1009190.915485320030712 ], [ 3979290.65926536405459, 1009190.915485320030712 ], [ 3979253.23474801518023, 1009190.915485320030712 ], [ 3979215.81023066630587, 1009190.915485320030712 ], [ 3979178.385713317431509, 1009190.915485320030712 ], [ 3979140.961195968557149, 1009190.915485320030712 ], [ 3979103.536678619682789, 1009190.915485320030712 ], [ 3979066.112161270808429, 1009190.915485320030712 ], [ 3979028.687643921934068, 1009190.915485320030712 ], [ 3978991.263126573059708, 1009190.915485320030712 ], [ 3978953.838609224185348, 1009190.915485320030712 ], [ 3978916.414091875310987, 1009190.915485320030712 ], [ 3978878.989574526436627, 1009190.915485320030712 ], [ 3978841.565057177562267, 1009190.915485320030712 ], [ 3978804.140539828687906, 1009190.915485320030712 ], [ 3978766.716022479813546, 1009190.915485320030712 ], [ 3978729.291505130939186, 1009190.915485320030712 ], [ 3978691.866987782064825, 1009190.915485320030712 ], [ 3978654.442470433190465, 1009190.915485320030712 ], [ 3978617.017953084316105, 1009190.915485320030712 ], [ 3978579.593435735441744, 1009190.915485320030712 ], [ 3978542.168918386567384, 1009190.915485320030712 ], [ 3978504.744401037693024, 1009190.915485320030712 ], [ 3978467.319883688818663, 1009190.915485320030712 ], [ 3978429.895366339944303, 1009190.915485320030712 ], [ 3978392.470848991069943, 1009190.915485320030712 ], [ 3978355.046331642195582, 1009190.915485320030712 ], [ 3978317.621814293321222, 1009190.915485320030712 ], [ 3978280.197296944446862, 1009190.915485320030712 ], [ 3978242.772779595572501, 1009190.915485320030712 ], [ 3978205.348262246698141, 1009190.915485320030712 ], [ 3978167.923744897823781, 1009190.915485320030712 ], [ 3978130.49922754894942, 1009190.915485320030712 ], [ 3978093.07471020007506, 1009190.915485320030712 ], [ 3978055.6501928512007, 1009190.915485320030712 ], [ 3978018.225675502326339, 1009190.915485320030712 ], [ 3977980.801158153451979, 1009190.915485320030712 ], [ 3977943.376640804577619, 1009190.915485320030712 ], [ 3977905.952123455703259, 1009190.915485320030712 ], [ 3977868.527606106828898, 1009190.915485320030712 ], [ 3977831.103088757954538, 1009190.915485320030712 ], [ 3977793.678571409080178, 1009190.915485320030712 ], [ 3977756.254054060205817, 1009190.915485320030712 ], [ 3977718.829536711331457, 1009190.915485320030712 ], [ 3977681.405019362457097, 1009190.915485320030712 ], [ 3977643.980502013582736, 1009190.915485320030712 ], [ 3977606.555984664708376, 1009190.915485320030712 ], [ 3977569.131467315834016, 1009190.915485320030712 ], [ 3977531.706949966959655, 1009190.915485320030712 ], [ 3977494.282432618085295, 1009190.915485320030712 ], [ 3977456.857915269210935, 1009190.915485320030712 ], [ 3977419.433397920336574, 1009190.915485320030712 ], [ 3977382.008880571462214, 1009190.915485320030712 ], [ 3977344.584363222587854, 1009190.915485320030712 ], [ 3977307.159845873713493, 1009190.915485320030712 ], [ 3977269.735328524839133, 1009190.915485320030712 ], [ 3977232.310811175964773, 1009190.915485320030712 ], [ 3977194.886293827090412, 1009190.915485320030712 ], [ 3977157.461776478216052, 1009190.915485320030712 ], [ 3977120.037259129341692, 1009190.915485320030712 ], [ 3977082.612741780467331, 1009190.915485320030712 ], [ 3977045.188224431592971, 1009190.915485320030712 ], [ 3977007.763707082718611, 1009190.915485320030712 ], [ 3976970.33918973384425, 1009190.915485320030712 ], [ 3976932.91467238496989, 1009190.915485320030712 ], [ 3976895.49015503609553, 1009190.915485320030712 ], [ 3976858.065637687221169, 1009190.915485320030712 ], [ 3976858.065637687221169, 1009153.490967971156351 ], [ 3976858.065637687221169, 1009116.066450622281991 ], [ 3976858.065637687221169, 1009078.641933273407631 ], [ 3976858.065637687221169, 1009041.21741592453327 ], [ 3976831.602507687173784, 1009014.754285924485885 ], [ 3976794.177990338299423, 1009014.754285924485885 ], [ 3976756.753472989425063, 1009014.754285924485885 ], [ 3976719.328955640550703, 1009014.754285924485885 ], [ 3976681.904438291676342, 1009014.754285924485885 ], [ 3976644.479920942801982, 1009014.754285924485885 ], [ 3976607.055403593927622, 1009014.754285924485885 ], [ 3976569.630886245053262, 1009014.754285924485885 ], [ 3976532.206368896178901, 1009014.754285924485885 ], [ 3976494.781851547304541, 1009014.754285924485885 ], [ 3976457.357334198430181, 1009014.754285924485885 ], [ 3976419.93281684955582, 1009014.754285924485885 ], [ 3976382.50829950068146, 1009014.754285924485885 ], [ 3976345.0837821518071, 1009014.754285924485885 ], [ 3976318.620652151759714, 1009041.21741592453327 ], [ 3976318.620652151759714, 1009078.641933273407631 ], [ 3976318.620652151759714, 1009116.066450622281991 ], [ 3976318.620652151759714, 1009153.490967971156351 ], [ 3976318.620652151759714, 1009190.915485320030712 ], [ 3976281.196134802885354, 1009190.915485320030712 ], [ 3976243.771617454010993, 1009190.915485320030712 ], [ 3976206.347100105136633, 1009190.915485320030712 ], [ 3976168.922582756262273, 1009190.915485320030712 ], [ 3976168.922582756262273, 1009228.340002668905072 ], [ 3976168.922582756262273, 1009265.764520017779432 ], [ 3976168.922582756262273, 1009303.189037366653793 ], [ 3976168.922582756262273, 1009340.613554715528153 ], [ 3976131.498065407387912, 1009340.613554715528153 ], [ 3976094.073548058513552, 1009340.613554715528153 ], [ 3976056.649030709639192, 1009340.613554715528153 ], [ 3976019.224513360764831, 1009340.613554715528153 ], [ 3975992.761383360717446, 1009367.076684715575539 ], [ 3975992.761383360717446, 1009404.501202064449899 ], [ 3975992.761383360717446, 1009441.925719413324259 ], [ 3975992.761383360717446, 1009479.35023676219862 ], [ 3975992.761383360717446, 1009516.77475411107298 ], [ 3975955.336866011843085, 1009516.77475411107298 ], [ 3975917.912348662968725, 1009516.77475411107298 ], [ 3975880.487831314094365, 1009516.77475411107298 ], [ 3975843.063313965220004, 1009516.77475411107298 ], [ 3975843.063313965220004, 1009554.19927145994734 ], [ 3975843.063313965220004, 1009591.623788808821701 ], [ 3975843.063313965220004, 1009629.048306157696061 ], [ 3975843.063313965220004, 1009666.472823506570421 ], [ 3975805.638796616345644, 1009666.472823506570421 ], [ 3975768.214279267471284, 1009666.472823506570421 ], [ 3975730.789761918596923, 1009666.472823506570421 ], [ 3975693.365244569722563, 1009666.472823506570421 ], [ 3975666.902114569675177, 1009692.935953506617807 ], [ 3975666.902114569675177, 1009730.360470855492167 ], [ 3975666.902114569675177, 1009767.784988204366527 ], [ 3975666.902114569675177, 1009805.209505553240888 ], [ 3975666.902114569675177, 1009842.634022902115248 ], [ 3975629.477597220800817, 1009842.634022902115248 ], [ 3975592.053079871926457, 1009842.634022902115248 ], [ 3975554.628562523052096, 1009842.634022902115248 ], [ 3975517.204045174177736, 1009842.634022902115248 ], [ 3975490.74091517413035, 1009869.097152902162634 ], [ 3975490.74091517413035, 1009906.521670251036994 ], [ 3975490.74091517413035, 1009943.946187599911354 ], [ 3975490.74091517413035, 1009981.370704948785715 ], [ 3975490.74091517413035, 1010018.795222297660075 ], [ 3975490.74091517413035, 1010056.219739646534435 ], [ 3975490.74091517413035, 1010093.644256995408796 ], [ 3975490.74091517413035, 1010131.068774344283156 ], [ 3975490.74091517413035, 1010168.493291693157516 ], [ 3975453.31639782525599, 1010168.493291693157516 ], [ 3975415.89188047638163, 1010168.493291693157516 ], [ 3975378.467363127507269, 1010168.493291693157516 ], [ 3975352.004233127459884, 1010194.956421693204902 ], [ 3975352.004233127459884, 1010232.380939042079262 ], [ 3975352.004233127459884, 1010269.805456390953623 ], [ 3975352.004233127459884, 1010307.229973739827983 ], [ 3975352.004233127459884, 1010344.654491088702343 ], [ 3975352.004233127459884, 1010382.079008437576704 ], [ 3975352.004233127459884, 1010419.503525786451064 ], [ 3975352.004233127459884, 1010456.928043135325424 ], [ 3975352.004233127459884, 1010494.352560484199785 ], [ 3975314.579715778585523, 1010494.352560484199785 ], [ 3975277.155198429711163, 1010494.352560484199785 ], [ 3975239.730681080836803, 1010494.352560484199785 ], [ 3975202.306163731962442, 1010494.352560484199785 ], [ 3975175.843033731915057, 1010520.81569048424717 ], [ 3975175.843033731915057, 1010558.240207833121531 ], [ 3975175.843033731915057, 1010595.664725181995891 ], [ 3975175.843033731915057, 1010633.089242530870251 ], [ 3975175.843033731915057, 1010670.513759879744612 ], [ 3975175.843033731915057, 1010707.938277228618972 ], [ 3975175.843033731915057, 1010745.362794577493332 ], [ 3975175.843033731915057, 1010782.787311926367693 ], [ 3975175.843033731915057, 1010820.211829275242053 ], [ 3975175.843033731915057, 1010857.636346624116413 ], [ 3975175.843033731915057, 1010895.060863972990774 ], [ 3975175.843033731915057, 1010932.485381321865134 ], [ 3975175.843033731915057, 1010969.909898670739494 ], [ 3975175.843033731915057, 1011007.334416019613855 ], [ 3975138.418516383040696, 1011007.334416019613855 ], [ 3975100.993999034166336, 1011007.334416019613855 ], [ 3975063.569481685291976, 1011007.334416019613855 ], [ 3975026.144964336417615, 1011007.334416019613855 ], [ 3975026.144964336417615, 1011044.758933368488215 ], [ 3975026.144964336417615, 1011082.183450717362575 ], [ 3975026.144964336417615, 1011119.607968066236936 ], [ 3975026.144964336417615, 1011157.032485415111296 ], [ 3975026.144964336417615, 1011194.457002763985656 ], [ 3975026.144964336417615, 1011231.881520112860017 ], [ 3975026.144964336417615, 1011269.306037461734377 ], [ 3975026.144964336417615, 1011306.730554810608737 ], [ 3975026.144964336417615, 1011344.155072159483097 ], [ 3975026.144964336417615, 1011381.579589508357458 ], [ 3975026.144964336417615, 1011419.004106857231818 ], [ 3975026.144964336417615, 1011456.428624206106178 ], [ 3975026.144964336417615, 1011493.853141554980539 ], [ 3975026.144964336417615, 1011531.277658903854899 ], [ 3975026.144964336417615, 1011568.702176252729259 ], [ 3975026.144964336417615, 1011606.12669360160362 ], [ 3975026.144964336417615, 1011643.55121095047798 ], [ 3975026.144964336417615, 1011680.97572829935234 ], [ 3975026.144964336417615, 1011718.400245648226701 ], [ 3975026.144964336417615, 1011755.824762997101061 ], [ 3975026.144964336417615, 1011793.249280345975421 ], [ 3975026.144964336417615, 1011830.673797694849782 ], [ 3974988.720446987543255, 1011830.673797694849782 ], [ 3974951.295929638668895, 1011830.673797694849782 ], [ 3974913.871412289794534, 1011830.673797694849782 ], [ 3974876.446894940920174, 1011830.673797694849782 ], [ 3974849.983764940872788, 1011857.136927694897167 ], [ 3974849.983764940872788, 1011894.561445043771528 ], [ 3974849.983764940872788, 1011931.985962392645888 ], [ 3974849.983764940872788, 1011969.410479741520248 ], [ 3974849.983764940872788, 1012006.834997090394609 ], [ 3974849.983764940872788, 1012044.259514439268969 ], [ 3974849.983764940872788, 1012081.684031788143329 ], [ 3974849.983764940872788, 1012119.10854913701769 ], [ 3974849.983764940872788, 1012156.53306648589205 ], [ 3974849.983764940872788, 1012193.95758383476641 ], [ 3974849.983764940872788, 1012231.382101183640771 ], [ 3974849.983764940872788, 1012268.806618532515131 ], [ 3974849.983764940872788, 1012306.231135881389491 ], [ 3974849.983764940872788, 1012343.655653230263852 ], [ 3974849.983764940872788, 1012381.080170579138212 ], [ 3974849.983764940872788, 1012418.504687928012572 ], [ 3974849.983764940872788, 1012455.929205276886933 ], [ 3974849.983764940872788, 1012493.353722625761293 ], [ 3974849.983764940872788, 1012530.778239974635653 ], [ 3974849.983764940872788, 1012568.202757323510014 ], [ 3974849.983764940872788, 1012605.627274672384374 ], [ 3974849.983764940872788, 1012643.051792021258734 ], [ 3974812.559247591998428, 1012643.051792021258734 ], [ 3974775.134730243124068, 1012643.051792021258734 ], [ 3974737.710212894249707, 1012643.051792021258734 ], [ 3974700.285695545375347, 1012643.051792021258734 ], [ 3974673.822565545327961, 1012669.51492202130612 ], [ 3974673.822565545327961, 1012706.93943937018048 ], [ 3974673.822565545327961, 1012744.363956719054841 ], [ 3974673.822565545327961, 1012781.788474067929201 ], [ 3974673.822565545327961, 1012819.212991416803561 ], [ 3974673.822565545327961, 1012856.637508765677921 ], [ 3974673.822565545327961, 1012894.062026114552282 ], [ 3974673.822565545327961, 1012931.486543463426642 ], [ 3974673.822565545327961, 1012968.911060812301002 ], [ 3974673.822565545327961, 1013006.335578161175363 ], [ 3974673.822565545327961, 1013043.760095510049723 ], [ 3974673.822565545327961, 1013081.184612858924083 ], [ 3974673.822565545327961, 1013118.609130207798444 ], [ 3974673.822565545327961, 1013156.033647556672804 ], [ 3974636.398048196453601, 1013156.033647556672804 ], [ 3974598.973530847579241, 1013156.033647556672804 ], [ 3974561.54901349870488, 1013156.033647556672804 ], [ 3974524.12449614983052, 1013156.033647556672804 ], [ 3974524.12449614983052, 1013193.458164905547164 ], [ 3974524.12449614983052, 1013230.882682254421525 ], [ 3974524.12449614983052, 1013268.307199603295885 ], [ 3974524.12449614983052, 1013305.731716952170245 ], [ 3974524.12449614983052, 1013343.156234301044606 ], [ 3974524.12449614983052, 1013380.580751649918966 ], [ 3974524.12449614983052, 1013418.005268998793326 ], [ 3974524.12449614983052, 1013455.429786347667687 ], [ 3974524.12449614983052, 1013492.854303696542047 ], [ 3974486.69997880095616, 1013492.854303696542047 ], [ 3974449.2754614520818, 1013492.854303696542047 ], [ 3974411.850944103207439, 1013492.854303696542047 ], [ 3974374.426426754333079, 1013492.854303696542047 ], [ 3974374.426426754333079, 1013530.278821045416407 ], [ 3974374.426426754333079, 1013567.703338394290768 ], [ 3974374.426426754333079, 1013605.127855743165128 ], [ 3974374.426426754333079, 1013642.552373092039488 ], [ 3974374.426426754333079, 1013679.976890440913849 ], [ 3974374.426426754333079, 1013717.401407789788209 ], [ 3974374.426426754333079, 1013754.825925138662569 ], [ 3974374.426426754333079, 1013792.25044248753693 ], [ 3974374.426426754333079, 1013829.67495983641129 ], [ 3974374.426426754333079, 1013867.09947718528565 ], [ 3974374.426426754333079, 1013904.523994534160011 ], [ 3974374.426426754333079, 1013941.948511883034371 ], [ 3974374.426426754333079, 1013979.373029231908731 ], [ 3974374.426426754333079, 1014016.797546580783091 ], [ 3974374.426426754333079, 1014054.222063929657452 ], [ 3974374.426426754333079, 1014091.646581278531812 ], [ 3974374.426426754333079, 1014129.071098627406172 ], [ 3974347.963296754285693, 1014155.534228627453558 ], [ 3974310.538779405411333, 1014155.534228627453558 ], [ 3974273.114262056536973, 1014155.534228627453558 ], [ 3974235.689744707662612, 1014155.534228627453558 ], [ 3974209.226614707615227, 1014181.997358627500944 ], [ 3974209.226614707615227, 1014219.421875976375304 ], [ 3974209.226614707615227, 1014256.846393325249664 ], [ 3974209.226614707615227, 1014294.270910674124025 ], [ 3974209.226614707615227, 1014331.695428022998385 ], [ 3974209.226614707615227, 1014369.119945371872745 ], [ 3974209.226614707615227, 1014406.544462720747106 ], [ 3974209.226614707615227, 1014443.968980069621466 ], [ 3974209.226614707615227, 1014481.393497418495826 ], [ 3974171.802097358740866, 1014481.393497418495826 ], [ 3974134.377580009866506, 1014481.393497418495826 ], [ 3974096.953062660992146, 1014481.393497418495826 ], [ 3974059.528545312117785, 1014481.393497418495826 ], [ 3974022.104027963243425, 1014481.393497418495826 ], [ 3974022.104027963243425, 1014518.818014767370187 ], [ 3974022.104027963243425, 1014556.242532116244547 ], [ 3974022.104027963243425, 1014593.667049465118907 ], [ 3974022.104027963243425, 1014631.091566813993268 ], [ 3974022.104027963243425, 1014668.516084162867628 ], [ 3974022.104027963243425, 1014705.940601511741988 ], [ 3974022.104027963243425, 1014743.365118860616349 ], [ 3974022.104027963243425, 1014780.789636209490709 ], [ 3974022.104027963243425, 1014818.214153558365069 ], [ 3974022.104027963243425, 1014855.63867090723943 ], [ 3974022.104027963243425, 1014893.06318825611379 ], [ 3974022.104027963243425, 1014930.48770560498815 ], [ 3974022.104027963243425, 1014967.912222953862511 ], [ 3974022.104027963243425, 1015005.336740302736871 ], [ 3974022.104027963243425, 1015042.761257651611231 ], [ 3974022.104027963243425, 1015080.185775000485592 ], [ 3974022.104027963243425, 1015117.610292349359952 ], [ 3974022.104027963243425, 1015155.034809698234312 ], [ 3974020.250917875207961, 1015226.059154934831895 ], [ 3974020.250917875207961, 1015359.914259287179448 ], [ 3974022.104027963243425, 1015491.855465838103555 ], [ 3974022.104027963243425, 1015529.279983186977915 ], [ 3974022.104027963243425, 1015566.704500535852276 ], [ 3974022.104027963243425, 1015604.129017884726636 ], [ 3974022.104027963243425, 1015641.553535233600996 ], [ 3974022.104027963243425, 1015678.978052582475357 ], [ 3974022.104027963243425, 1015716.402569931349717 ], [ 3974022.104027963243425, 1015753.827087280224077 ], [ 3974022.104027963243425, 1015791.251604629098438 ], [ 3974022.104027963243425, 1015828.676121977972798 ], [ 3974022.104027963243425, 1015866.100639326847158 ], [ 3974022.104027963243425, 1015903.525156675721519 ], [ 3974022.104027963243425, 1015940.949674024595879 ], [ 3974022.104027963243425, 1015978.374191373470239 ], [ 3974022.104027963243425, 1016015.7987087223446 ], [ 3974022.104027963243425, 1016053.22322607121896 ], [ 3974022.104027963243425, 1016090.64774342009332 ], [ 3974022.104027963243425, 1016128.072260768967681 ], [ 3974022.104027963243425, 1016165.496778117842041 ], [ 3974022.104027963243425, 1016202.921295466716401 ], [ 3974022.104027963243425, 1016240.345812815590762 ], [ 3974022.104027963243425, 1016277.770330164465122 ], [ 3974022.104027963243425, 1016315.194847513339482 ], [ 3974059.528545312117785, 1016315.194847513339482 ], [ 3974096.953062660992146, 1016315.194847513339482 ], [ 3974134.377580009866506, 1016315.194847513339482 ], [ 3974171.802097358740866, 1016315.194847513339482 ], [ 3974198.265227358788252, 1016341.657977513386868 ], [ 3974198.265227358788252, 1016379.082494862261228 ], [ 3974198.265227358788252, 1016416.507012211135589 ], [ 3974198.265227358788252, 1016453.931529560009949 ], [ 3974224.728357358835638, 1016480.394659560057335 ], [ 3974262.152874707709998, 1016480.394659560057335 ], [ 3974299.577392056584358, 1016480.394659560057335 ], [ 3974337.001909405458719, 1016480.394659560057335 ], [ 3974363.465039405506104, 1016506.85778956010472 ], [ 3974363.465039405506104, 1016544.282306908979081 ], [ 3974363.465039405506104, 1016581.706824257853441 ], [ 3974363.465039405506104, 1016619.131341606727801 ], [ 3974389.92816940555349, 1016645.594471606775187 ], [ 3974427.35268675442785, 1016645.594471606775187 ], [ 3974464.777204103302211, 1016645.594471606775187 ], [ 3974502.201721452176571, 1016645.594471606775187 ], [ 3974528.664851452223957, 1016672.057601606822573 ], [ 3974528.664851452223957, 1016709.482118955696933 ], [ 3974528.664851452223957, 1016746.906636304571293 ], [ 3974528.664851452223957, 1016784.331153653445654 ], [ 3974555.127981452271342, 1016810.794283653493039 ], [ 3974592.552498801145703, 1016810.794283653493039 ], [ 3974629.977016150020063, 1016810.794283653493039 ], [ 3974667.401533498894423, 1016810.794283653493039 ], [ 3974693.864663498941809, 1016837.257413653540425 ], [ 3974693.864663498941809, 1016874.681931002414785 ], [ 3974693.864663498941809, 1016912.106448351289146 ], [ 3974693.864663498941809, 1016949.530965700163506 ], [ 3974693.864663498941809, 1016986.955483049037866 ], [ 3974693.864663498941809, 1017024.380000397912227 ], [ 3974693.864663498941809, 1017061.804517746786587 ], [ 3974692.392389415763319, 1017101.49921274674125 ], [ 3974702.147470537107438, 1017141.193907746695913 ], [ 3974739.571987885981798, 1017141.193907746695913 ], [ 3974776.996505234856158, 1017141.193907746695913 ], [ 3974814.421022583730519, 1017141.193907746695913 ], [ 3974851.845539932604879, 1017141.193907746695913 ], [ 3974851.845539932604879, 1017178.618425095570274 ], [ 3974851.845539932604879, 1017216.042942444444634 ], [ 3974851.845539932604879, 1017253.467459793318994 ], [ 3974851.845539932604879, 1017290.891977142193355 ], [ 3974851.845539932604879, 1017328.316494491067715 ], [ 3974851.845539932604879, 1017365.741011839942075 ], [ 3974851.845539932604879, 1017403.165529188816436 ], [ 3974851.845539932604879, 1017440.590046537690796 ], [ 3974851.845539932604879, 1017478.014563886565156 ], [ 3974851.845539932604879, 1017515.439081235439517 ], [ 3974851.845539932604879, 1017552.863598584313877 ], [ 3974851.845539932604879, 1017590.288115933188237 ], [ 3974825.382409932557493, 1017616.751245933235623 ], [ 3974787.957892583683133, 1017616.751245933235623 ], [ 3974750.533375234808773, 1017616.751245933235623 ], [ 3974713.108857885934412, 1017616.751245933235623 ], [ 3974686.645727885887027, 1017643.214375933283009 ], [ 3974686.645727885887027, 1017680.638893282157369 ], [ 3974686.645727885887027, 1017718.063410631031729 ], [ 3974686.645727885887027, 1017755.48792797990609 ], [ 3974686.645727885887027, 1017792.91244532878045 ], [ 3974686.645727885887027, 1017830.33696267765481 ], [ 3974686.645727885887027, 1017867.761480026529171 ], [ 3974686.645727885887027, 1017905.185997375403531 ], [ 3974686.645727885887027, 1017942.610514724277891 ], [ 3974686.645727885887027, 1017980.035032073152252 ], [ 3974686.645727885887027, 1018017.459549422026612 ], [ 3974686.645727885887027, 1018054.884066770900972 ], [ 3974686.645727885887027, 1018092.308584119775333 ], [ 3974686.645727885887027, 1018129.733101468649693 ], [ 3974724.070245234761387, 1018129.733101468649693 ], [ 3974761.494762583635747, 1018129.733101468649693 ], [ 3974798.919279932510108, 1018129.733101468649693 ], [ 3974836.343797281384468, 1018129.733101468649693 ], [ 3974873.768314630258828, 1018129.733101468649693 ], [ 3974911.192831979133189, 1018129.733101468649693 ], [ 3974948.617349328007549, 1018129.733101468649693 ], [ 3974986.041866676881909, 1018129.733101468649693 ], [ 3975023.46638402575627, 1018129.733101468649693 ], [ 3975023.46638402575627, 1018167.157618817524053 ], [ 3975023.46638402575627, 1018204.582136166398413 ], [ 3975023.46638402575627, 1018242.006653515272774 ], [ 3975023.46638402575627, 1018279.431170864147134 ], [ 3975023.46638402575627, 1018316.855688213021494 ], [ 3975023.46638402575627, 1018354.280205561895855 ], [ 3975023.46638402575627, 1018391.704722910770215 ], [ 3975023.46638402575627, 1018429.129240259644575 ], [ 3975049.929514025803655, 1018455.592370259691961 ], [ 3975087.354031374678016, 1018455.592370259691961 ], [ 3975124.778548723552376, 1018455.592370259691961 ], [ 3975162.203066072426736, 1018455.592370259691961 ], [ 3975199.627583421301097, 1018455.592370259691961 ], [ 3975237.052100770175457, 1018455.592370259691961 ], [ 3975274.476618119049817, 1018455.592370259691961 ], [ 3975311.901135467924178, 1018455.592370259691961 ], [ 3975349.325652816798538, 1018455.592370259691961 ], [ 3975386.750170165672898, 1018455.592370259691961 ], [ 3975424.174687514547259, 1018455.592370259691961 ], [ 3975461.599204863421619, 1018455.592370259691961 ], [ 3975499.023722212295979, 1018455.592370259691961 ], [ 3975499.023722212295979, 1018493.016887608566321 ], [ 3975499.023722212295979, 1018530.441404957440682 ], [ 3975499.023722212295979, 1018567.865922306315042 ], [ 3975499.023722212295979, 1018605.290439655189402 ], [ 3975525.486852212343365, 1018631.753569655236788 ], [ 3975562.911369561217725, 1018631.753569655236788 ], [ 3975600.335886910092086, 1018631.753569655236788 ], [ 3975637.760404258966446, 1018631.753569655236788 ], [ 3975675.184921607840806, 1018631.753569655236788 ], [ 3975712.609438956715167, 1018631.753569655236788 ], [ 3975750.033956305589527, 1018631.753569655236788 ], [ 3975787.458473654463887, 1018631.753569655236788 ], [ 3975824.882991003338248, 1018631.753569655236788 ], [ 3975851.346121003385633, 1018658.216699655284174 ], [ 3975851.346121003385633, 1018695.641217004158534 ], [ 3975851.346121003385633, 1018733.065734353032894 ], [ 3975851.346121003385633, 1018770.490251701907255 ], [ 3975851.346121003385633, 1018807.914769050781615 ], [ 3975888.770638352259994, 1018807.914769050781615 ], [ 3975926.195155701134354, 1018807.914769050781615 ], [ 3975963.619673050008714, 1018807.914769050781615 ], [ 3976001.044190398883075, 1018807.914769050781615 ], [ 3976038.468707747757435, 1018807.914769050781615 ], [ 3976075.893225096631795, 1018807.914769050781615 ], [ 3976113.317742445506155, 1018807.914769050781615 ], [ 3976150.742259794380516, 1018807.914769050781615 ], [ 3976150.742259794380516, 1018845.339286399655975 ], [ 3976150.742259794380516, 1018882.763803748530336 ], [ 3976150.742259794380516, 1018920.188321097404696 ], [ 3976150.742259794380516, 1018957.612838446279056 ], [ 3976150.742259794380516, 1018995.037355795153417 ], [ 3976150.742259794380516, 1019032.461873144027777 ], [ 3976150.742259794380516, 1019069.886390492902137 ], [ 3976150.742259794380516, 1019107.310907841776498 ], [ 3976177.205389794427902, 1019133.774037841823883 ], [ 3976214.629907143302262, 1019133.774037841823883 ], [ 3976252.054424492176622, 1019133.774037841823883 ], [ 3976289.478941841050982, 1019133.774037841823883 ], [ 3976326.903459189925343, 1019133.774037841823883 ], [ 3976326.903459189925343, 1019171.198555190698244 ], [ 3976326.903459189925343, 1019208.623072539572604 ], [ 3976326.903459189925343, 1019246.047589888446964 ], [ 3976326.903459189925343, 1019283.472107237321325 ], [ 3976364.327976538799703, 1019283.472107237321325 ], [ 3976401.752493887674063, 1019283.472107237321325 ], [ 3976439.177011236548424, 1019283.472107237321325 ], [ 3976476.601528585422784, 1019283.472107237321325 ], [ 3976514.026045934297144, 1019283.472107237321325 ], [ 3976514.026045934297144, 1019320.896624586195685 ], [ 3976514.026045934297144, 1019358.321141935070045 ], [ 3976514.026045934297144, 1019395.745659283944406 ], [ 3976514.026045934297144, 1019433.170176632818766 ], [ 3976540.48917593434453, 1019459.633306632866152 ], [ 3976577.91369328321889, 1019459.633306632866152 ], [ 3976615.338210632093251, 1019459.633306632866152 ], [ 3976652.762727980967611, 1019459.633306632866152 ], [ 3976690.187245329841971, 1019459.633306632866152 ], [ 3976727.611762678716332, 1019459.633306632866152 ], [ 3976765.036280027590692, 1019459.633306632866152 ], [ 3976802.460797376465052, 1019459.633306632866152 ], [ 3976839.885314725339413, 1019459.633306632866152 ], [ 3976877.309832074213773, 1019459.633306632866152 ], [ 3976914.734349423088133, 1019459.633306632866152 ], [ 3976952.158866771962494, 1019459.633306632866152 ], [ 3976989.583384120836854, 1019459.633306632866152 ], [ 3977027.007901469711214, 1019459.633306632866152 ], [ 3977064.432418818585575, 1019459.633306632866152 ], [ 3977101.856936167459935, 1019459.633306632866152 ], [ 3977139.281453516334295, 1019459.633306632866152 ], [ 3977176.705970865208656, 1019459.633306632866152 ], [ 3977214.130488214083016, 1019459.633306632866152 ], [ 3977251.555005562957376, 1019459.633306632866152 ], [ 3977288.979522911831737, 1019459.633306632866152 ], [ 3977326.404040260706097, 1019459.633306632866152 ], [ 3977326.404040260706097, 1019497.057823981740512 ], [ 3977326.404040260706097, 1019534.482341330614872 ], [ 3977326.404040260706097, 1019571.906858679489233 ], [ 3977326.404040260706097, 1019609.331376028363593 ], [ 3977352.867170260753483, 1019635.794506028410979 ], [ 3977390.291687609627843, 1019635.794506028410979 ], [ 3977427.716204958502203, 1019635.794506028410979 ], [ 3977465.140722307376564, 1019635.794506028410979 ], [ 3977502.565239656250924, 1019635.794506028410979 ], [ 3977539.989757005125284, 1019635.794506028410979 ], [ 3977577.414274353999645, 1019635.794506028410979 ], [ 3977614.838791702874005, 1019635.794506028410979 ], [ 3977652.263309051748365, 1019635.794506028410979 ], [ 3977678.726439051795751, 1019609.331376028363593 ], [ 3977678.726439051795751, 1019571.906858679489233 ], [ 3977678.726439051795751, 1019534.482341330614872 ], [ 3977678.726439051795751, 1019497.057823981740512 ], [ 3977678.726439051795751, 1019459.633306632866152 ], [ 3977716.150956400670111, 1019459.633306632866152 ], [ 3977753.575473749544472, 1019459.633306632866152 ], [ 3977790.999991098418832, 1019459.633306632866152 ], [ 3977790.999991098418832, 1019497.057823981740512 ], [ 3977790.999991098418832, 1019534.482341330614872 ], [ 3977790.999991098418832, 1019571.906858679489233 ], [ 3977790.999991098418832, 1019609.331376028363593 ], [ 3977790.999991098418832, 1019646.755893377237953 ], [ 3977790.999991098418832, 1019684.180410726112314 ], [ 3977790.999991098418832, 1019721.604928074986674 ], [ 3977790.999991098418832, 1019759.029445423861034 ], [ 3977817.463121098466218, 1019785.49257542390842 ], [ 3977854.887638447340578, 1019785.49257542390842 ], [ 3977892.312155796214938, 1019785.49257542390842 ], [ 3977929.736673145089298, 1019785.49257542390842 ], [ 3977956.199803145136684, 1019811.955705423955806 ], [ 3977956.199803145136684, 1019849.380222772830166 ], [ 3977956.199803145136684, 1019886.804740121704526 ], [ 3977956.199803145136684, 1019924.229257470578887 ], [ 3977982.66293314518407, 1019950.692387470626272 ], [ 3978020.08745049405843, 1019950.692387470626272 ], [ 3978057.511967842932791, 1019950.692387470626272 ], [ 3978094.936485191807151, 1019950.692387470626272 ], [ 3978132.361002540681511, 1019950.692387470626272 ], [ 3978158.824132540728897, 1019977.155517470673658 ], [ 3978158.824132540728897, 1020014.580034819548018 ], [ 3978158.824132540728897, 1020052.004552168422379 ], [ 3978158.824132540728897, 1020089.429069517296739 ], [ 3978158.824132540728897, 1020126.853586866171099 ], [ 3978158.824132540728897, 1020164.27810421504546 ], [ 3978158.824132540728897, 1020201.70262156391982 ], [ 3978158.824132540728897, 1020239.12713891279418 ], [ 3978158.824132540728897, 1020276.551656261668541 ], [ 3978158.824132540728897, 1020313.976173610542901 ], [ 3978158.824132540728897, 1020351.400690959417261 ], [ 3978158.824132540728897, 1020388.825208308291622 ], [ 3978158.824132540728897, 1020426.249725657165982 ], [ 3978185.287262540776283, 1020452.712855657213368 ], [ 3978222.711779889650643, 1020452.712855657213368 ], [ 3978260.136297238525003, 1020452.712855657213368 ], [ 3978297.560814587399364, 1020452.712855657213368 ], [ 3978297.560814587399364, 1020490.137373006087728 ], [ 3978297.560814587399364, 1020527.561890354962088 ], [ 3978297.560814587399364, 1020564.986407703836448 ], [ 3978297.560814587399364, 1020602.410925052710809 ], [ 3978324.023944587446749, 1020628.874055052758195 ], [ 3978361.44846193632111, 1020628.874055052758195 ], [ 3978398.87297928519547, 1020628.874055052758195 ], [ 3978436.29749663406983, 1020628.874055052758195 ], [ 3978473.722013982944191, 1020628.874055052758195 ], [ 3978473.722013982944191, 1020666.298572401632555 ], [ 3978473.722013982944191, 1020703.723089750506915 ], [ 3978473.722013982944191, 1020741.147607099381275 ], [ 3978473.722013982944191, 1020778.572124448255636 ], [ 3978511.146531331818551, 1020778.572124448255636 ], [ 3978548.571048680692911, 1020778.572124448255636 ], [ 3978585.995566029567271, 1020778.572124448255636 ], [ 3978623.420083378441632, 1020778.572124448255636 ], [ 3978660.844600727315992, 1020778.572124448255636 ], [ 3978698.269118076190352, 1020778.572124448255636 ], [ 3978735.693635425064713, 1020778.572124448255636 ], [ 3978773.118152773939073, 1020778.572124448255636 ], [ 3978799.581282773986459, 1020805.035254448303021 ], [ 3978799.581282773986459, 1020842.459771797177382 ], [ 3978799.581282773986459, 1020879.884289146051742 ], [ 3978799.581282773986459, 1020917.308806494926102 ], [ 3978826.044412774033844, 1020943.771936494973488 ], [ 3978863.468930122908205, 1020943.771936494973488 ], [ 3978900.893447471782565, 1020943.771936494973488 ], [ 3978938.317964820656925, 1020943.771936494973488 ], [ 3978975.742482169531286, 1020943.771936494973488 ], [ 3979013.166999518405646, 1020943.771936494973488 ], [ 3979050.591516867280006, 1020943.771936494973488 ], [ 3979088.016034216154367, 1020943.771936494973488 ], [ 3979125.440551565028727, 1020943.771936494973488 ], [ 3979162.865068913903087, 1020943.771936494973488 ], [ 3979200.289586262777448, 1020943.771936494973488 ], [ 3979237.714103611651808, 1020943.771936494973488 ], [ 3979275.138620960526168, 1020943.771936494973488 ], [ 3979312.563138309400529, 1020943.771936494973488 ], [ 3979349.987655658274889, 1020943.771936494973488 ], [ 3979387.412173007149249, 1020943.771936494973488 ], [ 3979424.83669035602361, 1020943.771936494973488 ], [ 3979462.26120770489797, 1020943.771936494973488 ], [ 3979499.68572505377233, 1020943.771936494973488 ], [ 3979537.110242402646691, 1020943.771936494973488 ], [ 3979574.534759751521051, 1020943.771936494973488 ], [ 3979611.959277100395411, 1020943.771936494973488 ], [ 3979638.422407100442797, 1020970.235066495020874 ], [ 3979638.422407100442797, 1021007.659583843895234 ], [ 3979638.422407100442797, 1021045.084101192769594 ], [ 3979638.422407100442797, 1021082.508618541643955 ], [ 3979664.885537100490183, 1021108.971748541691341 ], [ 3979702.310054449364543, 1021108.971748541691341 ], [ 3979739.734571798238903, 1021108.971748541691341 ], [ 3979777.159089147113264, 1021108.971748541691341 ], [ 3979814.583606495987624, 1021108.971748541691341 ], [ 3979852.008123844861984, 1021108.971748541691341 ], [ 3979889.432641193736345, 1021108.971748541691341 ], [ 3979926.857158542610705, 1021108.971748541691341 ], [ 3979964.281675891485065, 1021108.971748541691341 ], [ 3979964.281675891485065, 1021071.54723119281698 ], [ 3979964.281675891485065, 1021034.12271384394262 ], [ 3979964.281675891485065, 1020996.69819649506826 ], [ 3979964.281675891485065, 1020959.273679146193899 ], [ 3979964.281675891485065, 1020921.849161797319539 ], [ 3979964.281675891485065, 1020884.424644448445179 ], [ 3979964.281675891485065, 1020847.000127099570818 ], [ 3979964.281675891485065, 1020809.575609750696458 ], [ 3979964.281675891485065, 1020772.151092401822098 ], [ 3979937.81854589143768, 1020745.687962401774712 ], [ 3979900.394028542563319, 1020745.687962401774712 ], [ 3979862.969511193688959, 1020745.687962401774712 ], [ 3979825.544993844814599, 1020745.687962401774712 ], [ 3979825.544993844814599, 1020708.263445052900352 ], [ 3979825.544993844814599, 1020670.838927704025991 ], [ 3979825.544993844814599, 1020633.414410355151631 ], [ 3979825.544993844814599, 1020595.989893006277271 ], [ 3979825.544993844814599, 1020558.56537565740291 ], [ 3979825.544993844814599, 1020521.14085830852855 ], [ 3979825.544993844814599, 1020483.71634095965419 ], [ 3979825.544993844814599, 1020446.291823610779829 ], [ 3979862.969511193688959, 1020446.291823610779829 ], [ 3979900.394028542563319, 1020446.291823610779829 ], [ 3979937.81854589143768, 1020446.291823610779829 ], [ 3979964.281675891485065, 1020419.828693610732444 ], [ 3979964.281675891485065, 1020382.404176261858083 ], [ 3979964.281675891485065, 1020344.979658912983723 ], [ 3979964.281675891485065, 1020307.555141564109363 ], [ 3979964.281675891485065, 1020270.130624215235002 ], [ 3979964.281675891485065, 1020232.706106866360642 ], [ 3979964.281675891485065, 1020195.281589517486282 ], [ 3979964.281675891485065, 1020157.857072168611921 ], [ 3979990.744805891532451, 1020131.393942168564536 ], [ 3980028.169323240406811, 1020131.393942168564536 ], [ 3980065.593840589281172, 1020131.393942168564536 ], [ 3980103.018357938155532, 1020131.393942168564536 ] ] ] } }
]
}
