{
"type": "FeatureCollection",
"name": "Wenago",
"crs": { "type": "name", "properties": { "name": "urn:ogc:def:crs:EPSG::3857" } },
"features": [
{ "type": "Feature", "properties": { }, "geometry": { "type": "Polygon", "coordinates": [ [ [ 4270182.546890741214156, 698100.90317082661204 ], [ 4270226.119797074235976, 699000.404968531569466 ], [ 4270255.480581877753139, 699611.109292431967333 ], [ 4270182.546890741214156, 700265.104145014891401 ], [ 4270145.122373392805457, 700265.104145014891401 ], [ 4270107.697856044396758, 700265.104145014891401 ], [ 4270070.273338695988059, 700265.104145014891401 ], [ 4270032.84882134757936, 700265.104145014891401 ], [ 4270032.84882134757936, 700302.528662363765761 ], [ 4270032.84882134757936, 700339.953179712640122 ], [ 4270032.84882134757936, 700377.377697061514482 ], [ 4270032.84882134757936, 700414.802214410388842 ], [ 4270032.84882134757936, 700452.226731759263203 ], [ 4270032.84882134757936, 700489.651249108137563 ], [ 4270032.84882134757936, 700527.075766457011923 ], [ 4270032.84882134757936, 700564.500283805886284 ], [ 4270032.84882134757936, 700601.924801154760644 ], [ 4270032.84882134757936, 700639.349318503635004 ], [ 4270032.84882134757936, 700676.773835852509364 ], [ 4270032.84882134757936, 700714.198353201383725 ], [ 4270032.84882134757936, 700751.622870550258085 ], [ 4270006.385691347531974, 700778.086000550305471 ], [ 4269968.961173999123275, 700778.086000550305471 ], [ 4269931.536656650714576, 700778.086000550305471 ], [ 4269894.112139302305877, 700778.086000550305471 ], [ 4269867.649009302258492, 700804.549130550352857 ], [ 4269867.649009302258492, 700841.973647899227217 ], [ 4269867.649009302258492, 700879.398165248101577 ], [ 4269867.649009302258492, 700916.822682596975937 ], [ 4269867.649009302258492, 700954.247199945850298 ], [ 4269867.649009302258492, 700991.671717294724658 ], [ 4269867.649009302258492, 701029.096234643599018 ], [ 4269867.649009302258492, 701066.520751992473379 ], [ 4269867.649009302258492, 701103.945269341347739 ], [ 4269867.649009302258492, 701141.369786690222099 ], [ 4269867.649009302258492, 701178.79430403909646 ], [ 4269867.649009302258492, 701216.21882138797082 ], [ 4269867.649009302258492, 701253.64333873684518 ], [ 4269867.649009302258492, 701291.067856085719541 ], [ 4269867.649009302258492, 701328.492373434593901 ], [ 4269867.649009302258492, 701365.916890783468261 ], [ 4269867.649009302258492, 701403.341408132342622 ], [ 4269841.185879302211106, 701429.804538132390007 ], [ 4269803.761361953802407, 701429.804538132390007 ], [ 4269766.336844605393708, 701429.804538132390007 ], [ 4269728.912327256985009, 701429.804538132390007 ], [ 4269728.912327256985009, 701467.229055481264368 ], [ 4269728.912327256985009, 701504.653572830138728 ], [ 4269728.912327256985009, 701542.078090179013088 ], [ 4269728.912327256985009, 701579.502607527887449 ], [ 4269728.912327256985009, 701616.927124876761809 ], [ 4269728.912327256985009, 701654.351642225636169 ], [ 4269728.912327256985009, 701691.77615957451053 ], [ 4269728.912327256985009, 701729.20067692338489 ], [ 4269728.912327256985009, 701766.62519427225925 ], [ 4269728.912327256985009, 701804.049711621133611 ], [ 4269728.912327256985009, 701841.474228970007971 ], [ 4269728.912327256985009, 701878.898746318882331 ], [ 4269728.912327256985009, 701916.323263667756692 ], [ 4269691.48780990857631, 701916.323263667756692 ], [ 4269654.063292560167611, 701916.323263667756692 ], [ 4269616.638775211758912, 701916.323263667756692 ], [ 4269579.214257863350213, 701916.323263667756692 ], [ 4269541.789740514941514, 701916.323263667756692 ], [ 4269541.789740514941514, 701953.747781016631052 ], [ 4269541.789740514941514, 701991.172298365505412 ], [ 4269541.789740514941514, 702028.596815714379773 ], [ 4269541.789740514941514, 702066.021333063254133 ], [ 4269541.789740514941514, 702103.445850412128493 ], [ 4269541.789740514941514, 702140.870367761002854 ], [ 4269541.789740514941514, 702178.294885109877214 ], [ 4269541.789740514941514, 702215.719402458751574 ], [ 4269541.789740514941514, 702253.143919807625934 ], [ 4269541.789740514941514, 702290.568437156500295 ], [ 4269541.789740514941514, 702327.992954505374655 ], [ 4269541.789740514941514, 702365.417471854249015 ], [ 4269541.789740514941514, 702402.841989203123376 ], [ 4269541.789740514941514, 702440.266506551997736 ], [ 4269541.789740514941514, 702477.691023900872096 ], [ 4269541.789740514941514, 702515.115541249746457 ], [ 4269541.789740514941514, 702552.540058598620817 ], [ 4269502.095045515336096, 702577.264946659212001 ], [ 4269462.400350515730679, 702575.792672575917095 ], [ 4269424.97583316732198, 702575.792672575917095 ], [ 4269387.551315818913281, 702575.792672575917095 ], [ 4269361.088185818865895, 702602.255802575964481 ], [ 4269361.088185818865895, 702639.680319924838841 ], [ 4269361.088185818865895, 702677.104837273713201 ], [ 4269361.088185818865895, 702714.529354622587562 ], [ 4269361.088185818865895, 702751.953871971461922 ], [ 4269361.088185818865895, 702789.378389320336282 ], [ 4269361.088185818865895, 702826.802906669210643 ], [ 4269361.088185818865895, 702864.227424018085003 ], [ 4269361.088185818865895, 702901.651941366959363 ], [ 4269361.088185818865895, 702939.076458715833724 ], [ 4269361.088185818865895, 702976.500976064708084 ], [ 4269361.088185818865895, 703013.925493413582444 ], [ 4269361.088185818865895, 703051.350010762456805 ], [ 4269361.088185818865895, 703088.774528111331165 ], [ 4269361.088185818865895, 703126.199045460205525 ], [ 4269361.088185818865895, 703163.623562809079885 ], [ 4269341.72578598652035, 703238.472597506828606 ], [ 4269116.827982245013118, 704107.857780182152055 ], [ 4268578.088910871185362, 705567.666876807925291 ], [ 4268241.012343928217888, 706640.342322766315192 ], [ 4268241.012343928217888, 706677.766840115189552 ], [ 4268241.012343928217888, 706715.191357464063913 ], [ 4268241.012343928217888, 706752.615874812938273 ], [ 4268241.012343928217888, 706790.040392161812633 ], [ 4268241.012343928217888, 706827.464909510686994 ], [ 4268241.012343928217888, 706864.889426859561354 ], [ 4268241.012343928217888, 706902.313944208435714 ], [ 4268241.012343928217888, 706939.738461557310075 ], [ 4268241.012343928217888, 706977.162978906184435 ], [ 4268241.012343928217888, 707014.587496255058795 ], [ 4268214.549213928170502, 707041.050626255106181 ], [ 4267664.344750873744488, 707821.654731412301771 ], [ 4267345.646413480862975, 708339.53952967596706 ], [ 4267063.01355801615864, 708684.045046213199385 ], [ 4267036.550428016111255, 708716.30136069888249 ], [ 4266999.125910667702556, 708716.30136069888249 ], [ 4266961.701393319293857, 708716.30136069888249 ], [ 4266924.276875970885158, 708716.30136069888249 ], [ 4266886.852358622476459, 708716.30136069888249 ], [ 4266849.42784127406776, 708716.30136069888249 ], [ 4266812.00332392565906, 708716.30136069888249 ], [ 4266774.578806577250361, 708716.30136069888249 ], [ 4266737.154289228841662, 708701.356622693012469 ], [ 4266270.039524779655039, 708514.823615242145024 ], [ 4265948.9425696907565, 708218.821247814688832 ], [ 4265920.235939608886838, 708192.358117814641446 ], [ 4265920.235939608886838, 708154.933600465767086 ], [ 4265920.235939608886838, 708117.509083116892725 ], [ 4265920.235939608886838, 708080.084565768018365 ], [ 4265920.235939608886838, 708042.660048419144005 ], [ 4265882.811422260478139, 708042.660048419144005 ], [ 4265845.38690491206944, 708042.660048419144005 ], [ 4265807.962387563660741, 708042.660048419144005 ], [ 4265770.537870215252042, 708042.660048419144005 ], [ 4265744.074740215204656, 708016.196918419096619 ], [ 4265744.074740215204656, 707978.772401070222259 ], [ 4265744.074740215204656, 707941.347883721347898 ], [ 4265744.074740215204656, 707903.923366372473538 ], [ 4265717.61161021515727, 707877.460236372426152 ], [ 4265680.187092866748571, 707877.460236372426152 ], [ 4265642.762575518339872, 707877.460236372426152 ], [ 4265605.338058169931173, 707877.460236372426152 ], [ 4265567.913540821522474, 707877.460236372426152 ], [ 4265530.489023473113775, 707877.460236372426152 ], [ 4265493.064506124705076, 707877.460236372426152 ], [ 4265455.639988776296377, 707877.460236372426152 ], [ 4265418.215471427887678, 707877.460236372426152 ], [ 4265391.752341427840292, 707850.997106372378767 ], [ 4265391.752341427840292, 707813.572589023504406 ], [ 4265391.752341427840292, 707776.148071674630046 ], [ 4265391.752341427840292, 707738.723554325755686 ], [ 4265391.752341427840292, 707701.299036976881325 ], [ 4265391.752341427840292, 707663.874519628006965 ], [ 4265391.752341427840292, 707626.450002279132605 ], [ 4265391.752341427840292, 707589.025484930258244 ], [ 4265391.752341427840292, 707551.600967581383884 ], [ 4265354.327824079431593, 707551.600967581383884 ], [ 4265316.903306731022894, 707551.600967581383884 ], [ 4265279.478789382614195, 707551.600967581383884 ], [ 4265242.054272034205496, 707551.600967581383884 ], [ 4265204.629754685796797, 707551.600967581383884 ], [ 4265167.205237337388098, 707551.600967581383884 ], [ 4265129.780719988979399, 707551.600967581383884 ], [ 4265092.3562026405707, 707551.600967581383884 ], [ 4265092.3562026405707, 707514.176450232509524 ], [ 4265092.3562026405707, 707476.751932883635163 ], [ 4265092.3562026405707, 707439.327415534760803 ], [ 4265092.3562026405707, 707401.902898185886443 ], [ 4265065.893072640523314, 707375.439768185839057 ], [ 4265028.468555292114615, 707375.439768185839057 ], [ 4264991.044037943705916, 707375.439768185839057 ], [ 4264953.619520595297217, 707375.439768185839057 ], [ 4264916.195003246888518, 707375.439768185839057 ], [ 4264878.770485898479819, 707375.439768185839057 ], [ 4264841.34596855007112, 707375.439768185839057 ], [ 4264803.921451201662421, 707375.439768185839057 ], [ 4264766.496933853253722, 707375.439768185839057 ], [ 4264740.033803853206336, 707348.976638185791671 ], [ 4264740.033803853206336, 707311.552120836917311 ], [ 4264740.033803853206336, 707274.127603488042951 ], [ 4264740.033803853206336, 707236.70308613916859 ], [ 4264713.570673853158951, 707210.239956139121205 ], [ 4264676.146156504750252, 707210.239956139121205 ], [ 4264638.721639156341553, 707210.239956139121205 ], [ 4264601.297121807932854, 707210.239956139121205 ], [ 4264563.872604459524155, 707210.239956139121205 ], [ 4264526.448087111115456, 707210.239956139121205 ], [ 4264489.023569762706757, 707210.239956139121205 ], [ 4264451.599052414298058, 707210.239956139121205 ], [ 4264425.135922414250672, 707183.776826139073819 ], [ 4264425.135922414250672, 707146.352308790199459 ], [ 4264425.135922414250672, 707108.927791441325098 ], [ 4264425.135922414250672, 707071.503274092450738 ], [ 4264398.672792414203286, 707045.040144092403352 ], [ 4264361.248275065794587, 707045.040144092403352 ], [ 4264323.823757717385888, 707045.040144092403352 ], [ 4264286.399240368977189, 707045.040144092403352 ], [ 4264248.97472302056849, 707045.040144092403352 ], [ 4264211.550205672159791, 707045.040144092403352 ], [ 4264174.125688323751092, 707045.040144092403352 ], [ 4264136.701170975342393, 707045.040144092403352 ], [ 4264099.276653626933694, 707045.040144092403352 ], [ 4264072.813523626886308, 707018.577014092355967 ], [ 4264072.813523626886308, 706981.152496743481606 ], [ 4264072.813523626886308, 706943.727979394607246 ], [ 4264072.813523626886308, 706906.303462045732886 ], [ 4264046.350393626838923, 706879.8403320456855 ], [ 4264008.925876278430223, 706879.8403320456855 ], [ 4263971.501358930021524, 706879.8403320456855 ], [ 4263934.076841581612825, 706879.8403320456855 ], [ 4263934.076841581612825, 706842.41581469681114 ], [ 4263934.076841581612825, 706804.991297347936779 ], [ 4263934.076841581612825, 706767.566779999062419 ], [ 4263934.076841581612825, 706730.142262650188059 ], [ 4263896.652324233204126, 706730.142262650188059 ], [ 4263859.227806884795427, 706730.142262650188059 ], [ 4263821.803289536386728, 706730.142262650188059 ], [ 4263784.378772187978029, 706730.142262650188059 ], [ 4263746.95425483956933, 706730.142262650188059 ], [ 4263709.529737491160631, 706730.142262650188059 ], [ 4263672.105220142751932, 706730.142262650188059 ], [ 4263634.680702794343233, 706730.142262650188059 ], [ 4263608.217572794295847, 706703.679132650140673 ], [ 4263608.217572794295847, 706666.254615301266313 ], [ 4263608.217572794295847, 706628.830097952391952 ], [ 4263608.217572794295847, 706591.405580603517592 ], [ 4263608.217572794295847, 706553.981063254643232 ], [ 4263570.793055445887148, 706553.981063254643232 ], [ 4263533.368538097478449, 706553.981063254643232 ], [ 4263495.94402074906975, 706553.981063254643232 ], [ 4263458.519503400661051, 706553.981063254643232 ], [ 4263421.094986052252352, 706553.981063254643232 ], [ 4263383.670468703843653, 706553.981063254643232 ], [ 4263346.245951355434954, 706553.981063254643232 ], [ 4263308.821434007026255, 706553.981063254643232 ], [ 4263271.396916658617556, 706553.981063254643232 ], [ 4263233.972399310208857, 706553.981063254643232 ], [ 4263196.547881961800158, 706553.981063254643232 ], [ 4263159.123364613391459, 706553.981063254643232 ], [ 4263121.69884726498276, 706553.981063254643232 ], [ 4263095.235717264935374, 706527.517933254595846 ], [ 4263095.235717264935374, 706490.093415905721486 ], [ 4263095.235717264935374, 706452.668898556847125 ], [ 4263095.235717264935374, 706415.244381207972765 ], [ 4263068.772587264887989, 706388.781251207925379 ], [ 4263031.34806991647929, 706388.781251207925379 ], [ 4262993.92355256807059, 706388.781251207925379 ], [ 4262956.499035219661891, 706388.781251207925379 ], [ 4262956.499035219661891, 706351.356733859051019 ], [ 4262956.499035219661891, 706313.932216510176659 ], [ 4262956.499035219661891, 706276.507699161302298 ], [ 4262956.499035219661891, 706239.083181812427938 ], [ 4262919.074517871253192, 706239.083181812427938 ], [ 4262881.650000522844493, 706239.083181812427938 ], [ 4262844.225483174435794, 706239.083181812427938 ], [ 4262806.800965826027095, 706239.083181812427938 ], [ 4262769.376448477618396, 706239.083181812427938 ], [ 4262731.951931129209697, 706239.083181812427938 ], [ 4262694.527413780800998, 706239.083181812427938 ], [ 4262657.102896432392299, 706239.083181812427938 ], [ 4262619.6783790839836, 706239.083181812427938 ], [ 4262582.253861735574901, 706239.083181812427938 ], [ 4262544.829344387166202, 706239.083181812427938 ], [ 4262507.404827038757503, 706239.083181812427938 ], [ 4262469.980309690348804, 706239.083181812427938 ], [ 4262443.517179690301418, 706212.620051812380552 ], [ 4262443.517179690301418, 706175.195534463506192 ], [ 4262443.517179690301418, 706137.771017114631832 ], [ 4262443.517179690301418, 706100.346499765757471 ], [ 4262443.517179690301418, 706062.921982416883111 ], [ 4262406.092662341892719, 706062.921982416883111 ], [ 4262368.66814499348402, 706062.921982416883111 ], [ 4262331.243627645075321, 706062.921982416883111 ], [ 4262293.819110296666622, 706062.921982416883111 ], [ 4262256.394592948257923, 706062.921982416883111 ], [ 4262218.970075599849224, 706062.921982416883111 ], [ 4262181.545558251440525, 706062.921982416883111 ], [ 4262144.121040903031826, 706062.921982416883111 ], [ 4262106.696523554623127, 706062.921982416883111 ], [ 4262069.272006206214428, 706062.921982416883111 ], [ 4262031.847488857805729, 706062.921982416883111 ], [ 4261994.42297150939703, 706062.921982416883111 ], [ 4261967.959841509349644, 706036.458852416835725 ], [ 4261967.959841509349644, 705999.034335067961365 ], [ 4261967.959841509349644, 705961.609817719087005 ], [ 4261967.959841509349644, 705924.185300370212644 ], [ 4261967.959841509349644, 705886.760783021338284 ], [ 4261930.535324160940945, 705886.760783021338284 ], [ 4261893.110806812532246, 705886.760783021338284 ], [ 4261855.686289464123547, 705886.760783021338284 ], [ 4261818.261772115714848, 705886.760783021338284 ], [ 4261780.837254767306149, 705886.760783021338284 ], [ 4261743.41273741889745, 705886.760783021338284 ], [ 4261705.988220070488751, 705886.760783021338284 ], [ 4261668.563702722080052, 705886.760783021338284 ], [ 4261631.139185373671353, 705886.760783021338284 ], [ 4261631.139185373671353, 705849.336265672463924 ], [ 4261631.139185373671353, 705811.911748323589563 ], [ 4261631.139185373671353, 705774.487230974715203 ], [ 4261631.139185373671353, 705737.062713625840843 ], [ 4261593.714668025262654, 705737.062713625840843 ], [ 4261556.290150676853955, 705737.062713625840843 ], [ 4261518.865633328445256, 705737.062713625840843 ], [ 4261481.441115980036557, 705737.062713625840843 ], [ 4261444.016598631627858, 705737.062713625840843 ], [ 4261406.592081283219159, 705737.062713625840843 ], [ 4261369.16756393481046, 705737.062713625840843 ], [ 4261331.743046586401761, 705737.062713625840843 ], [ 4261294.318529237993062, 705737.062713625840843 ], [ 4261256.894011889584363, 705737.062713625840843 ], [ 4261219.469494541175663, 705737.062713625840843 ], [ 4261182.044977192766964, 705737.062713625840843 ], [ 4261155.581847192719579, 705710.599583625793457 ], [ 4261155.581847192719579, 705673.175066276919097 ], [ 4261155.581847192719579, 705635.750548928044736 ], [ 4261155.581847192719579, 705598.326031579170376 ], [ 4261155.581847192719579, 705560.901514230296016 ], [ 4261118.15732984431088, 705560.901514230296016 ], [ 4261080.732812495902181, 705560.901514230296016 ], [ 4261043.308295147493482, 705560.901514230296016 ], [ 4261005.883777799084783, 705560.901514230296016 ], [ 4260968.459260450676084, 705560.901514230296016 ], [ 4260931.034743102267385, 705560.901514230296016 ], [ 4260893.610225753858685, 705560.901514230296016 ], [ 4260856.185708405449986, 705560.901514230296016 ], [ 4260818.761191057041287, 705560.901514230296016 ], [ 4260781.336673708632588, 705560.901514230296016 ], [ 4260743.912156360223889, 705560.901514230296016 ], [ 4260706.48763901181519, 705560.901514230296016 ], [ 4260669.063121663406491, 705560.901514230296016 ], [ 4260631.638604314997792, 705560.901514230296016 ], [ 4260594.214086966589093, 705560.901514230296016 ], [ 4260556.789569618180394, 705560.901514230296016 ], [ 4260519.365052269771695, 705560.901514230296016 ], [ 4260481.940534921362996, 705560.901514230296016 ], [ 4260444.516017572954297, 705560.901514230296016 ], [ 4260407.091500224545598, 705560.901514230296016 ], [ 4260369.666982876136899, 705560.901514230296016 ], [ 4260332.2424655277282, 705560.901514230296016 ], [ 4260294.817948179319501, 705560.901514230296016 ], [ 4260257.393430830910802, 705560.901514230296016 ], [ 4260219.968913482502103, 705560.901514230296016 ], [ 4260182.544396134093404, 705560.901514230296016 ], [ 4260145.119878785684705, 705560.901514230296016 ], [ 4260145.119878785684705, 705523.476996881421655 ], [ 4260145.119878785684705, 705486.052479532547295 ], [ 4260145.119878785684705, 705448.627962183672935 ], [ 4260145.119878785684705, 705411.203444834798574 ], [ 4260107.695361437276006, 705411.203444834798574 ], [ 4260070.270844088867307, 705411.203444834798574 ], [ 4260032.846326740458608, 705411.203444834798574 ], [ 4259995.421809392049909, 705411.203444834798574 ], [ 4259957.99729204364121, 705411.203444834798574 ], [ 4259920.572774695232511, 705411.203444834798574 ], [ 4259883.148257346823812, 705411.203444834798574 ], [ 4259845.723739998415112, 705411.203444834798574 ], [ 4259808.299222650006413, 705411.203444834798574 ], [ 4259770.874705301597714, 705411.203444834798574 ], [ 4259733.450187953189015, 705411.203444834798574 ], [ 4259696.025670604780316, 705411.203444834798574 ], [ 4259658.601153256371617, 705411.203444834798574 ], [ 4259621.176635907962918, 705411.203444834798574 ], [ 4259583.752118559554219, 705411.203444834798574 ], [ 4259546.32760121114552, 705411.203444834798574 ], [ 4259508.903083862736821, 705411.203444834798574 ], [ 4259471.478566514328122, 705411.203444834798574 ], [ 4259434.054049165919423, 705411.203444834798574 ], [ 4259396.629531817510724, 705411.203444834798574 ], [ 4259359.205014469102025, 705411.203444834798574 ], [ 4259321.780497120693326, 705411.203444834798574 ], [ 4259284.355979772284627, 705411.203444834798574 ], [ 4259246.931462423875928, 705411.203444834798574 ], [ 4259209.506945075467229, 705411.203444834798574 ], [ 4259172.08242772705853, 705411.203444834798574 ], [ 4259134.657910378649831, 705411.203444834798574 ], [ 4259097.233393030241132, 705411.203444834798574 ], [ 4259059.808875681832433, 705411.203444834798574 ], [ 4259022.384358333423734, 705411.203444834798574 ], [ 4258984.959840985015035, 705411.203444834798574 ], [ 4258947.535323636606336, 705411.203444834798574 ], [ 4258910.110806288197637, 705411.203444834798574 ], [ 4258872.686288939788938, 705411.203444834798574 ], [ 4258835.261771591380239, 705411.203444834798574 ], [ 4258797.837254242971539, 705411.203444834798574 ], [ 4258760.41273689456284, 705411.203444834798574 ], [ 4258722.988219546154141, 705411.203444834798574 ], [ 4258685.563702197745442, 705411.203444834798574 ], [ 4258648.139184849336743, 705411.203444834798574 ], [ 4258610.714667500928044, 705411.203444834798574 ], [ 4258573.290150152519345, 705411.203444834798574 ], [ 4258535.865632804110646, 705411.203444834798574 ], [ 4258498.441115455701947, 705411.203444834798574 ], [ 4258461.016598107293248, 705411.203444834798574 ], [ 4258423.592080758884549, 705411.203444834798574 ], [ 4258386.16756341047585, 705411.203444834798574 ], [ 4258348.743046062067151, 705411.203444834798574 ], [ 4258311.318528713658452, 705411.203444834798574 ], [ 4258273.894011365249753, 705411.203444834798574 ], [ 4258236.469494016841054, 705411.203444834798574 ], [ 4258199.044976668432355, 705411.203444834798574 ], [ 4258172.581846668384969, 705384.740314834751189 ], [ 4258172.581846668384969, 705347.315797485876828 ], [ 4258172.581846668384969, 705309.891280137002468 ], [ 4258172.581846668384969, 705272.466762788128108 ], [ 4258172.581846668384969, 705235.042245439253747 ], [ 4258172.581846668384969, 705197.617728090379387 ], [ 4258172.581846668384969, 705160.193210741505027 ], [ 4258172.581846668384969, 705122.768693392630666 ], [ 4258172.581846668384969, 705085.344176043756306 ], [ 4258146.118716668337584, 705058.88104604370892 ], [ 4258108.694199319928885, 705058.88104604370892 ], [ 4258071.269681971520185, 705058.88104604370892 ], [ 4258033.845164623111486, 705058.88104604370892 ], [ 4258007.382034623064101, 705032.417916043661535 ], [ 4258007.382034623064101, 704994.993398694787174 ], [ 4258007.382034623064101, 704957.568881345912814 ], [ 4258007.382034623064101, 704920.144363997038454 ], [ 4257980.918904623016715, 704893.681233996991068 ], [ 4257943.494387274608016, 704893.681233996991068 ], [ 4257906.069869926199317, 704893.681233996991068 ], [ 4257868.645352577790618, 704893.681233996991068 ], [ 4257868.645352577790618, 704931.105751345865428 ], [ 4257868.645352577790618, 704968.530268694739789 ], [ 4257868.645352577790618, 705005.954786043614149 ], [ 4257868.645352577790618, 705043.379303392488509 ], [ 4257842.182222577743232, 705069.842433392535895 ], [ 4257804.757705229334533, 705069.842433392535895 ], [ 4257767.333187880925834, 705069.842433392535895 ], [ 4257729.908670532517135, 705069.842433392535895 ], [ 4257692.484153184108436, 705069.842433392535895 ], [ 4257666.02102318406105, 705043.379303392488509 ], [ 4257666.02102318406105, 705005.954786043614149 ], [ 4257666.02102318406105, 704968.530268694739789 ], [ 4257666.02102318406105, 704931.105751345865428 ], [ 4257666.02102318406105, 704893.681233996991068 ], [ 4257666.02102318406105, 704856.256716648116708 ], [ 4257666.02102318406105, 704818.832199299242347 ], [ 4257666.02102318406105, 704781.407681950367987 ], [ 4257666.02102318406105, 704743.983164601493627 ], [ 4257666.02102318406105, 704706.558647252619267 ], [ 4257666.02102318406105, 704669.134129903744906 ], [ 4257666.02102318406105, 704631.709612554870546 ], [ 4257666.02102318406105, 704594.285095205996186 ], [ 4257666.02102318406105, 704556.860577857121825 ], [ 4257666.02102318406105, 704519.436060508247465 ], [ 4257666.02102318406105, 704482.011543159373105 ], [ 4257666.02102318406105, 704444.587025810498744 ], [ 4257666.02102318406105, 704407.162508461624384 ], [ 4257666.02102318406105, 704369.737991112750024 ], [ 4257666.02102318406105, 704332.313473763875663 ], [ 4257666.02102318406105, 704294.888956415001303 ], [ 4257666.02102318406105, 704257.464439066126943 ], [ 4257666.02102318406105, 704220.039921717252582 ], [ 4257703.445540532469749, 704220.039921717252582 ], [ 4257740.870057880878448, 704220.039921717252582 ], [ 4257778.294575229287148, 704220.039921717252582 ], [ 4257815.719092577695847, 704220.039921717252582 ], [ 4257842.182222577743232, 704193.576791717205197 ], [ 4257842.182222577743232, 704156.152274368330836 ], [ 4257842.182222577743232, 704118.727757019456476 ], [ 4257842.182222577743232, 704081.303239670582116 ], [ 4257842.182222577743232, 704043.878722321707755 ], [ 4257842.182222577743232, 704006.454204972833395 ], [ 4257842.182222577743232, 703969.029687623959035 ], [ 4257842.182222577743232, 703931.605170275084674 ], [ 4257842.182222577743232, 703894.180652926210314 ], [ 4257842.182222577743232, 703856.756135577335954 ], [ 4257842.182222577743232, 703819.331618228461593 ], [ 4257842.182222577743232, 703781.907100879587233 ], [ 4257842.182222577743232, 703744.482583530712873 ], [ 4257868.645352577790618, 703718.019453530665487 ], [ 4257906.069869926199317, 703718.019453530665487 ], [ 4257943.494387274608016, 703718.019453530665487 ], [ 4257980.918904623016715, 703718.019453530665487 ], [ 4258007.382034623064101, 703691.556323530618101 ], [ 4258007.382034623064101, 703654.131806181743741 ], [ 4258007.382034623064101, 703616.707288832869381 ], [ 4258007.382034623064101, 703579.28277148399502 ], [ 4258033.845164623111486, 703552.819641483947635 ], [ 4258071.269681971520185, 703552.819641483947635 ], [ 4258108.694199319928885, 703552.819641483947635 ], [ 4258146.118716668337584, 703552.819641483947635 ], [ 4258183.543234016746283, 703552.819641483947635 ], [ 4258183.543234016746283, 703515.395124135073274 ], [ 4258183.543234016746283, 703477.970606786198914 ], [ 4258183.543234016746283, 703440.546089437324554 ], [ 4258183.543234016746283, 703403.121572088450193 ], [ 4258183.543234016746283, 703365.697054739575833 ], [ 4258183.543234016746283, 703328.272537390701473 ], [ 4258183.543234016746283, 703290.848020041827112 ], [ 4258183.543234016746283, 703253.423502692952752 ], [ 4258210.006364016793668, 703226.960372692905366 ], [ 4258247.430881365202367, 703226.960372692905366 ], [ 4258284.855398713611066, 703226.960372692905366 ], [ 4258322.279916062019765, 703226.960372692905366 ], [ 4258348.743046062067151, 703200.497242692857981 ], [ 4258348.743046062067151, 703163.07272534398362 ], [ 4258348.743046062067151, 703125.64820799510926 ], [ 4258348.743046062067151, 703088.2236906462349 ], [ 4258375.206176062114537, 703061.760560646187514 ], [ 4258412.630693410523236, 703061.760560646187514 ], [ 4258450.055210758931935, 703061.760560646187514 ], [ 4258487.479728107340634, 703061.760560646187514 ], [ 4258487.479728107340634, 703024.336043297313154 ], [ 4258487.479728107340634, 702986.911525948438793 ], [ 4258487.479728107340634, 702949.487008599564433 ], [ 4258487.479728107340634, 702912.062491250690073 ], [ 4258513.94285810738802, 702885.599361250642687 ], [ 4258551.367375455796719, 702885.599361250642687 ], [ 4258588.791892804205418, 702885.599361250642687 ], [ 4258626.216410152614117, 702885.599361250642687 ], [ 4258663.640927501022816, 702885.599361250642687 ], [ 4258663.640927501022816, 702848.174843901768327 ], [ 4258663.640927501022816, 702810.750326552893966 ], [ 4258663.640927501022816, 702773.325809204019606 ], [ 4258663.640927501022816, 702735.901291855145246 ], [ 4258663.640927501022816, 702698.476774506270885 ], [ 4258663.640927501022816, 702661.052257157396525 ], [ 4258663.640927501022816, 702623.627739808522165 ], [ 4258663.640927501022816, 702586.203222459647804 ], [ 4258690.104057501070201, 702559.740092459600419 ], [ 4258727.5285748494789, 702559.740092459600419 ], [ 4258764.953092197887599, 702559.740092459600419 ], [ 4258802.377609546296299, 702559.740092459600419 ], [ 4258839.802126894704998, 702559.740092459600419 ], [ 4258839.802126894704998, 702522.315575110726058 ], [ 4258839.802126894704998, 702484.891057761851698 ], [ 4258839.802126894704998, 702447.466540412977338 ], [ 4258839.802126894704998, 702410.042023064102978 ], [ 4258866.265256894752383, 702383.578893064055592 ], [ 4258903.689774243161082, 702383.578893064055592 ], [ 4258941.114291591569781, 702383.578893064055592 ], [ 4258978.53880893997848, 702383.578893064055592 ], [ 4259005.001938940025866, 702357.115763064008206 ], [ 4259005.001938940025866, 702319.691245715133846 ], [ 4259005.001938940025866, 702282.266728366259485 ], [ 4259005.001938940025866, 702244.842211017385125 ], [ 4259031.465068940073252, 702218.379081017337739 ], [ 4259068.889586288481951, 702218.379081017337739 ], [ 4259106.31410363689065, 702218.379081017337739 ], [ 4259143.738620985299349, 702218.379081017337739 ], [ 4259170.201750985346735, 702191.915951017290354 ], [ 4259170.201750985346735, 702154.491433668415993 ], [ 4259170.201750985346735, 702117.066916319541633 ], [ 4259170.201750985346735, 702079.642398970667273 ], [ 4259196.66488098539412, 702053.179268970619887 ], [ 4259234.089398333802819, 702053.179268970619887 ], [ 4259271.513915682211518, 702053.179268970619887 ], [ 4259308.938433030620217, 702053.179268970619887 ], [ 4259308.938433030620217, 702015.754751621745527 ], [ 4259308.938433030620217, 701978.330234272871166 ], [ 4259308.938433030620217, 701940.905716923996806 ], [ 4259308.938433030620217, 701903.481199575122446 ], [ 4259308.938433030620217, 701866.056682226248085 ], [ 4259308.938433030620217, 701828.632164877373725 ], [ 4259308.938433030620217, 701791.207647528499365 ], [ 4259308.938433030620217, 701753.783130179625005 ], [ 4259335.401563030667603, 701727.320000179577619 ], [ 4259372.826080379076302, 701727.320000179577619 ], [ 4259410.250597727485001, 701727.320000179577619 ], [ 4259447.6751150758937, 701727.320000179577619 ], [ 4259485.099632424302399, 701727.320000179577619 ], [ 4259485.099632424302399, 701689.895482830703259 ], [ 4259485.099632424302399, 701652.470965481828898 ], [ 4259485.099632424302399, 701615.046448132954538 ], [ 4259485.099632424302399, 701577.621930784080178 ], [ 4259522.524149772711098, 701577.621930784080178 ], [ 4259559.948667121119797, 701577.621930784080178 ], [ 4259597.373184469528496, 701577.621930784080178 ], [ 4259634.797701817937195, 701577.621930784080178 ], [ 4259672.222219166345894, 701577.621930784080178 ], [ 4259672.222219166345894, 701540.197413435205817 ], [ 4259672.222219166345894, 701502.772896086331457 ], [ 4259672.222219166345894, 701465.348378737457097 ], [ 4259672.222219166345894, 701427.923861388582736 ], [ 4259672.222219166345894, 701390.499344039708376 ], [ 4259672.222219166345894, 701353.074826690834016 ], [ 4259672.222219166345894, 701315.650309341959655 ], [ 4259672.222219166345894, 701278.225791993085295 ], [ 4259672.222219166345894, 701240.801274644210935 ], [ 4259709.646736514754593, 701240.801274644210935 ], [ 4259747.071253863163292, 701240.801274644210935 ], [ 4259784.495771211571991, 701240.801274644210935 ], [ 4259821.92028855998069, 701240.801274644210935 ], [ 4259821.92028855998069, 701203.376757295336574 ], [ 4259821.92028855998069, 701165.952239946462214 ], [ 4259821.92028855998069, 701128.527722597587854 ], [ 4259821.92028855998069, 701091.103205248713493 ], [ 4259848.383418560028076, 701064.640075248666108 ], [ 4259885.807935908436775, 701064.640075248666108 ], [ 4259923.232453256845474, 701064.640075248666108 ], [ 4259960.656970605254173, 701064.640075248666108 ], [ 4259987.120100605301559, 701038.176945248618722 ], [ 4259987.120100605301559, 701000.752427899744362 ], [ 4259987.120100605301559, 700963.327910550870001 ], [ 4259987.120100605301559, 700925.903393201995641 ], [ 4259987.120100605301559, 700888.478875853121281 ], [ 4259987.120100605301559, 700851.05435850424692 ], [ 4259987.120100605301559, 700813.62984115537256 ], [ 4259987.120100605301559, 700776.2053238064982 ], [ 4259987.120100605301559, 700738.780806457623839 ], [ 4259987.120100605301559, 700701.356289108749479 ], [ 4259987.120100605301559, 700663.931771759875119 ], [ 4259987.120100605301559, 700626.507254411000758 ], [ 4259987.120100605301559, 700589.082737062126398 ], [ 4260024.544617953710258, 700589.082737062126398 ], [ 4260061.969135302118957, 700589.082737062126398 ], [ 4260099.393652650527656, 700589.082737062126398 ], [ 4260136.818169998936355, 700589.082737062126398 ], [ 4260136.818169998936355, 700551.658219713252038 ], [ 4260136.818169998936355, 700514.233702364377677 ], [ 4260136.818169998936355, 700476.809185015503317 ], [ 4260136.818169998936355, 700439.384667666628957 ], [ 4260136.818169998936355, 700401.960150317754596 ], [ 4260136.818169998936355, 700364.535632968880236 ], [ 4260136.818169998936355, 700327.111115620005876 ], [ 4260136.818169998936355, 700289.686598271131516 ], [ 4260136.818169998936355, 700252.262080922257155 ], [ 4260136.818169998936355, 700214.837563573382795 ], [ 4260136.818169998936355, 700177.413046224508435 ], [ 4260136.818169998936355, 700139.988528875634074 ], [ 4260136.818169998936355, 700102.564011526759714 ], [ 4260163.281299998983741, 700076.100881526712328 ], [ 4260200.70581734739244, 700076.100881526712328 ], [ 4260238.130334695801139, 700076.100881526712328 ], [ 4260275.554852044209838, 700076.100881526712328 ], [ 4260302.017982044257224, 700049.637751526664943 ], [ 4260302.017982044257224, 700012.213234177790582 ], [ 4260302.017982044257224, 699974.788716828916222 ], [ 4260302.017982044257224, 699937.364199480041862 ], [ 4260302.017982044257224, 699899.939682131167501 ], [ 4260302.017982044257224, 699862.515164782293141 ], [ 4260302.017982044257224, 699825.090647433418781 ], [ 4260302.017982044257224, 699787.66613008454442 ], [ 4260302.017982044257224, 699750.24161273567006 ], [ 4260302.017982044257224, 699712.8170953867957 ], [ 4260302.017982044257224, 699675.392578037921339 ], [ 4260302.017982044257224, 699637.968060689046979 ], [ 4260302.017982044257224, 699600.543543340172619 ], [ 4260328.481112044304609, 699574.080413340125233 ], [ 4260365.905629392713308, 699574.080413340125233 ], [ 4260403.330146741122007, 699574.080413340125233 ], [ 4260440.754664089530706, 699574.080413340125233 ], [ 4260478.179181437939405, 699574.080413340125233 ], [ 4260478.179181437939405, 699536.655895991250873 ], [ 4260478.179181437939405, 699499.231378642376512 ], [ 4260478.179181437939405, 699461.806861293502152 ], [ 4260478.179181437939405, 699424.382343944627792 ], [ 4260478.179181437939405, 699386.957826595753431 ], [ 4260478.179181437939405, 699349.533309246879071 ], [ 4260478.179181437939405, 699312.108791898004711 ], [ 4260478.179181437939405, 699274.68427454913035 ], [ 4260504.642311437986791, 699248.221144549082965 ], [ 4260657.779178757220507, 698977.405136540764943 ], [ 4260777.045293401926756, 698567.427867448073812 ], [ 4260814.999837573617697, 698277.064370222389698 ], [ 4260788.536707573570311, 698250.601240222342312 ], [ 4260788.536707573570311, 698213.176722873467952 ], [ 4260788.536707573570311, 698175.752205524593592 ], [ 4260788.536707573570311, 698138.327688175719231 ], [ 4260788.536707573570311, 698100.903170826844871 ], [ 4260788.536707573570311, 698063.478653477970511 ], [ 4260788.536707573570311, 698026.05413612909615 ], [ 4260788.536707573570311, 697988.62961878022179 ], [ 4260788.536707573570311, 697951.20510143134743 ], [ 4260814.999837573617697, 697924.741971431300044 ], [ 4260852.424354922026396, 697924.741971431300044 ], [ 4260889.848872270435095, 697924.741971431300044 ], [ 4260927.273389618843794, 697924.741971431300044 ], [ 4260964.697906967252493, 697924.741971431300044 ], [ 4260964.697906967252493, 697887.317454082425684 ], [ 4260964.697906967252493, 697849.892936733551323 ], [ 4260964.697906967252493, 697812.468419384676963 ], [ 4260964.697906967252493, 697775.043902035802603 ], [ 4260964.697906967252493, 697737.619384686928242 ], [ 4260964.697906967252493, 697700.194867338053882 ], [ 4260964.697906967252493, 697662.770349989179522 ], [ 4260964.697906967252493, 697625.345832640305161 ], [ 4260991.161036967299879, 697598.882702640257776 ], [ 4261028.585554315708578, 697598.882702640257776 ], [ 4261066.010071664117277, 697598.882702640257776 ], [ 4261103.434589012525976, 697598.882702640257776 ], [ 4261140.859106360934675, 697598.882702640257776 ], [ 4261140.859106360934675, 697561.458185291383415 ], [ 4261140.859106360934675, 697524.033667942509055 ], [ 4261140.859106360934675, 697486.609150593634695 ], [ 4261140.859106360934675, 697449.184633244760334 ], [ 4261140.859106360934675, 697411.760115895885974 ], [ 4261140.859106360934675, 697374.335598547011614 ], [ 4261140.859106360934675, 697336.911081198137254 ], [ 4261140.859106360934675, 697299.486563849262893 ], [ 4261140.859106360934675, 697262.062046500388533 ], [ 4261140.859106360934675, 697224.637529151514173 ], [ 4261140.859106360934675, 697187.213011802639812 ], [ 4261140.859106360934675, 697149.788494453765452 ], [ 4261140.859106360934675, 697112.363977104891092 ], [ 4261140.859106360934675, 697074.939459756016731 ], [ 4261140.859106360934675, 697037.514942407142371 ], [ 4261140.859106360934675, 697000.090425058268011 ], [ 4261140.859106360934675, 696962.66590770939365 ], [ 4261167.32223636098206, 696936.202777709346265 ], [ 4261204.746753709390759, 696936.202777709346265 ], [ 4261242.171271057799459, 696936.202777709346265 ], [ 4261279.595788406208158, 696936.202777709346265 ], [ 4261306.058918406255543, 696909.739647709298879 ], [ 4261306.058918406255543, 696872.315130360424519 ], [ 4261306.058918406255543, 696834.890613011550158 ], [ 4261306.058918406255543, 696797.466095662675798 ], [ 4261306.058918406255543, 696760.041578313801438 ], [ 4261306.058918406255543, 696722.617060964927077 ], [ 4261306.058918406255543, 696685.192543616052717 ], [ 4261306.058918406255543, 696647.768026267178357 ], [ 4261306.058918406255543, 696610.343508918303996 ], [ 4261306.058918406255543, 696572.918991569429636 ], [ 4261306.058918406255543, 696535.494474220555276 ], [ 4261306.058918406255543, 696498.069956871680915 ], [ 4261306.058918406255543, 696460.645439522806555 ], [ 4261306.058918406255543, 696423.220922173932195 ], [ 4261306.058918406255543, 696385.796404825057834 ], [ 4261306.058918406255543, 696348.371887476183474 ], [ 4261306.058918406255543, 696310.947370127309114 ], [ 4261332.522048406302929, 696284.484240127261728 ], [ 4261369.946565754711628, 696284.484240127261728 ], [ 4261407.371083103120327, 696284.484240127261728 ], [ 4261444.795600451529026, 696284.484240127261728 ], [ 4261471.258730451576412, 696258.021110127214342 ], [ 4261471.258730451576412, 696220.596592778339982 ], [ 4261471.258730451576412, 696183.172075429465622 ], [ 4261471.258730451576412, 696145.747558080591261 ], [ 4261471.258730451576412, 696108.323040731716901 ], [ 4261471.258730451576412, 696070.898523382842541 ], [ 4261471.258730451576412, 696033.47400603396818 ], [ 4261471.258730451576412, 695996.04948868509382 ], [ 4261471.258730451576412, 695958.62497133621946 ], [ 4261471.258730451576412, 695921.200453987345099 ], [ 4261471.258730451576412, 695883.775936638470739 ], [ 4261471.258730451576412, 695846.351419289596379 ], [ 4261471.258730451576412, 695808.926901940722018 ], [ 4261433.834213103167713, 695808.926901940722018 ], [ 4261396.409695754759014, 695808.926901940722018 ], [ 4261358.985178406350315, 695808.926901940722018 ], [ 4261321.560661057941616, 695808.926901940722018 ], [ 4261295.09753105789423, 695782.463771940674633 ], [ 4261295.09753105789423, 695745.039254591800272 ], [ 4261295.09753105789423, 695707.614737242925912 ], [ 4261295.09753105789423, 695670.190219894051552 ], [ 4261295.09753105789423, 695632.765702545177191 ], [ 4261295.09753105789423, 695595.341185196302831 ], [ 4261295.09753105789423, 695557.916667847428471 ], [ 4261295.09753105789423, 695520.492150498554111 ], [ 4261295.09753105789423, 695483.06763314967975 ], [ 4261295.09753105789423, 695445.64311580080539 ], [ 4261295.09753105789423, 695408.21859845193103 ], [ 4261295.09753105789423, 695370.794081103056669 ], [ 4261295.09753105789423, 695333.369563754182309 ], [ 4261295.09753105789423, 695295.945046405307949 ], [ 4261295.09753105789423, 695258.520529056433588 ], [ 4261295.09753105789423, 695221.096011707559228 ], [ 4261295.09753105789423, 695183.671494358684868 ], [ 4261295.09753105789423, 695146.246977009810507 ], [ 4261321.560661057941616, 695119.783847009763122 ], [ 4261358.985178406350315, 695119.783847009763122 ], [ 4261396.409695754759014, 695119.783847009763122 ], [ 4261433.834213103167713, 695119.783847009763122 ], [ 4261471.258730451576412, 695119.783847009763122 ], [ 4261471.258730451576412, 695082.359329660888761 ], [ 4261471.258730451576412, 695044.934812312014401 ], [ 4261471.258730451576412, 695007.510294963140041 ], [ 4261471.258730451576412, 694970.08577761426568 ], [ 4261471.258730451576412, 694932.66126026539132 ], [ 4261471.258730451576412, 694895.23674291651696 ], [ 4261471.258730451576412, 694857.812225567642599 ], [ 4261471.258730451576412, 694820.387708218768239 ], [ 4261497.721860451623797, 694793.924578218720853 ], [ 4261535.146377800032496, 694793.924578218720853 ], [ 4261572.570895148441195, 694793.924578218720853 ], [ 4261609.995412496849895, 694793.924578218720853 ], [ 4261609.995412496849895, 694756.500060869846493 ], [ 4261609.995412496849895, 694719.075543520972133 ], [ 4261609.995412496849895, 694681.651026172097772 ], [ 4261609.995412496849895, 694644.226508823223412 ], [ 4261609.995412496849895, 694606.801991474349052 ], [ 4261609.995412496849895, 694569.377474125474691 ], [ 4261609.995412496849895, 694531.952956776600331 ], [ 4261609.995412496849895, 694494.528439427725971 ], [ 4261636.45854249689728, 694468.065309427678585 ], [ 4261673.883059845305979, 694468.065309427678585 ], [ 4261711.307577193714678, 694468.065309427678585 ], [ 4261748.732094542123377, 694468.065309427678585 ], [ 4261786.156611890532076, 694468.065309427678585 ], [ 4261823.581129238940775, 694468.065309427678585 ], [ 4261861.005646587349474, 694468.065309427678585 ], [ 4261898.430163935758173, 694468.065309427678585 ], [ 4261935.854681284166873, 694468.065309427678585 ], [ 4261973.279198632575572, 694468.065309427678585 ], [ 4262010.703715980984271, 694468.065309427678585 ], [ 4262048.12823332939297, 694468.065309427678585 ], [ 4262085.552750677801669, 694468.065309427678585 ], [ 4262122.977268026210368, 694468.065309427678585 ], [ 4262160.401785374619067, 694468.065309427678585 ], [ 4262197.826302723027766, 694468.065309427678585 ], [ 4262235.250820071436465, 694468.065309427678585 ], [ 4262272.675337419845164, 694468.065309427678585 ], [ 4262310.099854768253863, 694468.065309427678585 ], [ 4262347.524372116662562, 694468.065309427678585 ], [ 4262384.948889465071261, 694468.065309427678585 ], [ 4262422.37340681347996, 694468.065309427678585 ], [ 4262459.797924161888659, 694468.065309427678585 ], [ 4262497.222441510297358, 694468.065309427678585 ], [ 4262534.646958858706057, 694468.065309427678585 ], [ 4262572.071476207114756, 694468.065309427678585 ], [ 4262609.495993555523455, 694468.065309427678585 ], [ 4262646.920510903932154, 694468.065309427678585 ], [ 4262684.345028252340853, 694468.065309427678585 ], [ 4262721.769545600749552, 694468.065309427678585 ], [ 4262759.194062949158251, 694468.065309427678585 ], [ 4262796.61858029756695, 694468.065309427678585 ], [ 4262834.043097645975649, 694468.065309427678585 ], [ 4262871.467614994384348, 694468.065309427678585 ], [ 4262908.892132342793047, 694468.065309427678585 ], [ 4262946.316649691201746, 694468.065309427678585 ], [ 4262983.741167039610445, 694468.065309427678585 ], [ 4263021.165684388019145, 694468.065309427678585 ], [ 4263058.590201736427844, 694468.065309427678585 ], [ 4263096.014719084836543, 694468.065309427678585 ], [ 4263122.477849084883928, 694494.528439427725971 ], [ 4263122.477849084883928, 694531.952956776600331 ], [ 4263122.477849084883928, 694569.377474125474691 ], [ 4263122.477849084883928, 694606.801991474349052 ], [ 4263148.940979084931314, 694633.265121474396437 ], [ 4263186.365496433340013, 694633.265121474396437 ], [ 4263223.790013781748712, 694633.265121474396437 ], [ 4263261.214531130157411, 694633.265121474396437 ], [ 4263287.677661130204797, 694659.728251474443823 ], [ 4263287.677661130204797, 694697.152768823318183 ], [ 4263287.677661130204797, 694734.577286172192544 ], [ 4263287.677661130204797, 694772.001803521066904 ], [ 4263314.140791130252182, 694798.46493352111429 ], [ 4263351.565308478660882, 694798.46493352111429 ], [ 4263388.989825827069581, 694798.46493352111429 ], [ 4263426.41434317547828, 694798.46493352111429 ], [ 4263463.838860523886979, 694798.46493352111429 ], [ 4263463.838860523886979, 694835.88945086998865 ], [ 4263463.838860523886979, 694873.31396821886301 ], [ 4263463.838860523886979, 694910.738485567737371 ], [ 4263463.838860523886979, 694948.163002916611731 ], [ 4263463.838860523886979, 694985.587520265486091 ], [ 4263463.838860523886979, 695023.012037614360452 ], [ 4263463.838860523886979, 695060.436554963234812 ], [ 4263463.838860523886979, 695097.861072312109172 ], [ 4263490.301990523934364, 695124.324202312156558 ], [ 4263527.726507872343063, 695124.324202312156558 ], [ 4263565.151025220751762, 695124.324202312156558 ], [ 4263602.575542569160461, 695124.324202312156558 ], [ 4263629.038672569207847, 695150.787332312203944 ], [ 4263629.038672569207847, 695188.211849661078304 ], [ 4263629.038672569207847, 695225.636367009952664 ], [ 4263629.038672569207847, 695263.060884358827025 ], [ 4263655.501802569255233, 695289.52401435887441 ], [ 4263692.926319917663932, 695289.52401435887441 ], [ 4263730.350837266072631, 695289.52401435887441 ], [ 4263767.77535461448133, 695289.52401435887441 ], [ 4263794.238484614528716, 695315.987144358921796 ], [ 4263794.238484614528716, 695353.411661707796156 ], [ 4263794.238484614528716, 695390.836179056670517 ], [ 4263794.238484614528716, 695428.260696405544877 ], [ 4263820.701614614576101, 695454.723826405592263 ], [ 4263858.1261319629848, 695454.723826405592263 ], [ 4263895.550649311393499, 695454.723826405592263 ], [ 4263932.975166659802198, 695454.723826405592263 ], [ 4263959.438296659849584, 695481.186956405639648 ], [ 4263959.438296659849584, 695518.611473754514009 ], [ 4263959.438296659849584, 695556.035991103388369 ], [ 4263959.438296659849584, 695593.460508452262729 ], [ 4263985.90142665989697, 695619.923638452310115 ], [ 4264023.325944008305669, 695619.923638452310115 ], [ 4264060.750461356714368, 695619.923638452310115 ], [ 4264098.174978705123067, 695619.923638452310115 ], [ 4264098.174978705123067, 695657.348155801184475 ], [ 4264098.174978705123067, 695694.772673150058836 ], [ 4264098.174978705123067, 695732.197190498933196 ], [ 4264098.174978705123067, 695769.621707847807556 ], [ 4264135.599496053531766, 695769.621707847807556 ], [ 4264173.024013401940465, 695769.621707847807556 ], [ 4264210.448530750349164, 695769.621707847807556 ], [ 4264247.873048098757863, 695769.621707847807556 ], [ 4264285.297565447166562, 695769.621707847807556 ], [ 4264285.297565447166562, 695807.046225196681917 ], [ 4264285.297565447166562, 695844.470742545556277 ], [ 4264285.297565447166562, 695881.895259894430637 ], [ 4264285.297565447166562, 695919.319777243304998 ], [ 4264285.297565447166562, 695956.744294592179358 ], [ 4264285.297565447166562, 695994.168811941053718 ], [ 4264285.297565447166562, 696031.593329289928079 ], [ 4264285.297565447166562, 696069.017846638802439 ], [ 4264285.297565447166562, 696106.442363987676799 ], [ 4264322.722082795575261, 696106.442363987676799 ], [ 4264360.14660014398396, 696106.442363987676799 ], [ 4264397.571117492392659, 696106.442363987676799 ], [ 4264434.995634840801358, 696106.442363987676799 ], [ 4264461.458764840848744, 696132.905493987724185 ], [ 4264461.458764840848744, 696170.330011336598545 ], [ 4264461.458764840848744, 696207.754528685472906 ], [ 4264461.458764840848744, 696245.179046034347266 ], [ 4264461.458764840848744, 696282.603563383221626 ], [ 4264498.883282189257443, 696282.603563383221626 ], [ 4264536.307799537666142, 696282.603563383221626 ], [ 4264573.732316886074841, 696282.603563383221626 ], [ 4264600.195446886122227, 696309.066693383269012 ], [ 4264600.195446886122227, 696346.491210732143372 ], [ 4264600.195446886122227, 696383.915728081017733 ], [ 4264600.195446886122227, 696421.340245429892093 ], [ 4264600.195446886122227, 696458.764762778766453 ], [ 4264600.195446886122227, 696496.189280127640814 ], [ 4264600.195446886122227, 696533.613797476515174 ], [ 4264600.195446886122227, 696571.038314825389534 ], [ 4264600.195446886122227, 696608.462832174263895 ], [ 4264637.619964234530926, 696608.462832174263895 ], [ 4264675.044481582939625, 696608.462832174263895 ], [ 4264712.468998931348324, 696608.462832174263895 ], [ 4264749.893516279757023, 696608.462832174263895 ], [ 4264776.356646279804409, 696634.92596217431128 ], [ 4264776.356646279804409, 696672.350479523185641 ], [ 4264776.356646279804409, 696709.774996872060001 ], [ 4264776.356646279804409, 696747.199514220934361 ], [ 4264776.356646279804409, 696784.624031569808722 ], [ 4264813.781163628213108, 696784.624031569808722 ], [ 4264851.205680976621807, 696784.624031569808722 ], [ 4264888.630198325030506, 696784.624031569808722 ], [ 4264926.054715673439205, 696784.624031569808722 ], [ 4264963.479233021847904, 696784.624031569808722 ], [ 4265000.903750370256603, 696784.624031569808722 ], [ 4265038.328267718665302, 696784.624031569808722 ], [ 4265075.752785067074001, 696784.624031569808722 ], [ 4265075.752785067074001, 696747.199514220934361 ], [ 4265075.752785067074001, 696709.774996872060001 ], [ 4265075.752785067074001, 696672.350479523185641 ], [ 4265075.752785067074001, 696634.92596217431128 ], [ 4265075.752785067074001, 696597.50144482543692 ], [ 4265075.752785067074001, 696560.07692747656256 ], [ 4265075.752785067074001, 696522.652410127688199 ], [ 4265075.752785067074001, 696485.227892778813839 ], [ 4265075.752785067074001, 696447.803375429939479 ], [ 4265113.1773024154827, 696447.803375429939479 ], [ 4265150.601819763891399, 696447.803375429939479 ], [ 4265188.026337112300098, 696447.803375429939479 ], [ 4265225.450854460708797, 696447.803375429939479 ], [ 4265251.913984460756183, 696421.340245429892093 ], [ 4265251.913984460756183, 696383.915728081017733 ], [ 4265251.913984460756183, 696346.491210732143372 ], [ 4265251.913984460756183, 696309.066693383269012 ], [ 4265278.377114460803568, 696282.603563383221626 ], [ 4265315.801631809212267, 696282.603563383221626 ], [ 4265353.226149157620966, 696282.603563383221626 ], [ 4265390.650666506029665, 696282.603563383221626 ], [ 4265417.113796506077051, 696256.140433383174241 ], [ 4265417.113796506077051, 696218.71591603429988 ], [ 4265417.113796506077051, 696181.29139868542552 ], [ 4265417.113796506077051, 696143.86688133655116 ], [ 4265417.113796506077051, 696106.442363987676799 ], [ 4265417.113796506077051, 696069.017846638802439 ], [ 4265417.113796506077051, 696031.593329289928079 ], [ 4265417.113796506077051, 695994.168811941053718 ], [ 4265417.113796506077051, 695956.744294592179358 ], [ 4265454.53831385448575, 695956.744294592179358 ], [ 4265491.962831202894449, 695956.744294592179358 ], [ 4265529.387348551303148, 695956.744294592179358 ], [ 4265566.811865899711847, 695956.744294592179358 ], [ 4265566.811865899711847, 695919.319777243304998 ], [ 4265566.811865899711847, 695881.895259894430637 ], [ 4265566.811865899711847, 695844.470742545556277 ], [ 4265566.811865899711847, 695807.046225196681917 ], [ 4265593.274995899759233, 695780.583095196634531 ], [ 4265630.699513248167932, 695780.583095196634531 ], [ 4265668.124030596576631, 695780.583095196634531 ], [ 4265705.54854794498533, 695780.583095196634531 ], [ 4265742.973065293394029, 695780.583095196634531 ], [ 4265742.973065293394029, 695743.158577847760171 ], [ 4265742.973065293394029, 695705.73406049888581 ], [ 4265742.973065293394029, 695668.30954315001145 ], [ 4265742.973065293394029, 695630.88502580113709 ], [ 4265742.973065293394029, 695593.460508452262729 ], [ 4265742.973065293394029, 695556.035991103388369 ], [ 4265742.973065293394029, 695518.611473754514009 ], [ 4265742.973065293394029, 695481.186956405639648 ], [ 4265769.436195293441415, 695454.723826405592263 ], [ 4265806.860712641850114, 695454.723826405592263 ], [ 4265844.285229990258813, 695454.723826405592263 ], [ 4265881.709747338667512, 695454.723826405592263 ], [ 4265919.134264687076211, 695454.723826405592263 ], [ 4265919.134264687076211, 695417.299309056717902 ], [ 4265919.134264687076211, 695379.874791707843542 ], [ 4265919.134264687076211, 695342.450274358969182 ], [ 4265919.134264687076211, 695305.025757010094821 ], [ 4265919.134264687076211, 695267.601239661220461 ], [ 4265919.134264687076211, 695230.176722312346101 ], [ 4265919.134264687076211, 695192.75220496347174 ], [ 4265919.134264687076211, 695155.32768761459738 ], [ 4265945.597394687123597, 695128.864557614549994 ], [ 4265983.021912035532296, 695128.864557614549994 ], [ 4266020.446429383940995, 695128.864557614549994 ], [ 4266057.870946732349694, 695128.864557614549994 ], [ 4266057.870946732349694, 695091.440040265675634 ], [ 4266057.870946732349694, 695054.015522916801274 ], [ 4266057.870946732349694, 695016.591005567926913 ], [ 4266057.870946732349694, 694979.166488219052553 ], [ 4266057.870946732349694, 694941.741970870178193 ], [ 4266057.870946732349694, 694904.317453521303833 ], [ 4266057.870946732349694, 694866.892936172429472 ], [ 4266057.870946732349694, 694829.468418823555112 ], [ 4266057.870946732349694, 694792.043901474680752 ], [ 4266095.295464080758393, 694792.043901474680752 ], [ 4266132.719981429167092, 694792.043901474680752 ], [ 4266170.144498777575791, 694792.043901474680752 ], [ 4266207.56901612598449, 694792.043901474680752 ], [ 4266234.032146126031876, 694765.580771474633366 ], [ 4266234.032146126031876, 694728.156254125759006 ], [ 4266234.032146126031876, 694690.731736776884645 ], [ 4266234.032146126031876, 694653.307219428010285 ], [ 4266260.495276126079261, 694626.844089427962899 ], [ 4266297.91979347448796, 694626.844089427962899 ], [ 4266335.344310822896659, 694626.844089427962899 ], [ 4266372.768828171305358, 694626.844089427962899 ], [ 4266372.768828171305358, 694589.419572079088539 ], [ 4266372.768828171305358, 694551.995054730214179 ], [ 4266372.768828171305358, 694514.570537381339818 ], [ 4266372.768828171305358, 694477.146020032465458 ], [ 4266399.231958171352744, 694450.682890032418072 ], [ 4266436.656475519761443, 694450.682890032418072 ], [ 4266474.080992868170142, 694450.682890032418072 ], [ 4266511.505510216578841, 694450.682890032418072 ], [ 4266548.93002756498754, 694450.682890032418072 ], [ 4266575.393157565034926, 694424.219760032370687 ], [ 4266575.393157565034926, 694386.795242683496326 ], [ 4266575.393157565034926, 694349.370725334621966 ], [ 4266575.393157565034926, 694311.946207985747606 ], [ 4266601.856287565082312, 694285.48307798570022 ], [ 4266639.280804913491011, 694285.48307798570022 ], [ 4266676.70532226189971, 694285.48307798570022 ], [ 4266714.129839610308409, 694285.48307798570022 ], [ 4266740.592969610355794, 694259.019947985652834 ], [ 4266740.592969610355794, 694221.595430636778474 ], [ 4266740.592969610355794, 694184.170913287904114 ], [ 4266740.592969610355794, 694146.746395939029753 ], [ 4266767.05609961040318, 694120.283265938982368 ], [ 4266804.480616958811879, 694120.283265938982368 ], [ 4266841.905134307220578, 694120.283265938982368 ], [ 4266879.329651655629277, 694120.283265938982368 ], [ 4266916.754169004037976, 694120.283265938982368 ], [ 4266954.178686352446675, 694120.283265938982368 ], [ 4266991.603203700855374, 694120.283265938982368 ], [ 4267029.027721049264073, 694120.283265938982368 ], [ 4267055.490851049311459, 694093.820135938934982 ], [ 4267055.490851049311459, 694056.395618590060622 ], [ 4267055.490851049311459, 694018.971101241186261 ], [ 4267055.490851049311459, 693981.546583892311901 ], [ 4267081.953981049358845, 693955.083453892264515 ], [ 4267119.378498397767544, 693955.083453892264515 ], [ 4267156.803015746176243, 693955.083453892264515 ], [ 4267194.227533094584942, 693955.083453892264515 ], [ 4267194.227533094584942, 693917.658936543390155 ], [ 4267194.227533094584942, 693880.234419194515795 ], [ 4267194.227533094584942, 693842.809901845641434 ], [ 4267194.227533094584942, 693805.385384496767074 ], [ 4267231.652050442993641, 693805.385384496767074 ], [ 4267269.07656779140234, 693805.385384496767074 ], [ 4267306.501085139811039, 693805.385384496767074 ], [ 4267343.925602488219738, 693805.385384496767074 ], [ 4267381.350119836628437, 693805.385384496767074 ], [ 4267418.774637185037136, 693805.385384496767074 ], [ 4267456.199154533445835, 693805.385384496767074 ], [ 4267493.623671881854534, 693805.385384496767074 ], [ 4267531.048189230263233, 693805.385384496767074 ], [ 4267557.511319230310619, 693778.922254496719688 ], [ 4267557.511319230310619, 693741.497737147845328 ], [ 4267557.511319230310619, 693704.073219798970968 ], [ 4267557.511319230310619, 693666.648702450096607 ], [ 4267557.511319230310619, 693629.224185101222247 ], [ 4267557.511319230310619, 693591.799667752347887 ], [ 4267557.511319230310619, 693554.375150403473526 ], [ 4267557.511319230310619, 693516.950633054599166 ], [ 4267597.206014229916036, 693477.255938054644503 ], [ 4267636.900709229521453, 693474.985760403098539 ], [ 4267674.325226577930152, 693474.985760403098539 ], [ 4267711.749743926338851, 693474.985760403098539 ], [ 4267738.212873926386237, 693501.448890403145924 ], [ 4267738.212873926386237, 693538.873407752020285 ], [ 4267738.212873926386237, 693576.297925100894645 ], [ 4267738.212873926386237, 693613.722442449769005 ], [ 4267764.676003926433623, 693640.185572449816391 ], [ 4267802.100521274842322, 693640.185572449816391 ], [ 4267839.525038623251021, 693640.185572449816391 ], [ 4267876.94955597165972, 693640.185572449816391 ], [ 4267876.94955597165972, 693602.761055100942031 ], [ 4267876.94955597165972, 693565.33653775206767 ], [ 4267876.94955597165972, 693527.91202040319331 ], [ 4267876.94955597165972, 693490.48750305431895 ], [ 4267903.412685971707106, 693464.024373054271564 ], [ 4267940.837203320115805, 693464.024373054271564 ], [ 4267978.261720668524504, 693464.024373054271564 ], [ 4268015.686238016933203, 693464.024373054271564 ], [ 4268053.110755365341902, 693464.024373054271564 ], [ 4268090.535272713750601, 693464.024373054271564 ], [ 4268127.9597900621593, 693464.024373054271564 ], [ 4268165.384307410567999, 693464.024373054271564 ], [ 4268202.808824758976698, 693464.024373054271564 ], [ 4268240.233342107385397, 693464.024373054271564 ], [ 4268277.657859455794096, 693464.024373054271564 ], [ 4268315.082376804202795, 693464.024373054271564 ], [ 4268352.506894152611494, 693464.024373054271564 ], [ 4268389.931411501020193, 693464.024373054271564 ], [ 4268389.931411501020193, 693501.448890403145924 ], [ 4268389.931411501020193, 693538.873407752020285 ], [ 4268389.931411501020193, 693576.297925100894645 ], [ 4268389.931411501020193, 693613.722442449769005 ], [ 4268389.931411501020193, 693651.146959798643366 ], [ 4268389.931411501020193, 693688.571477147517726 ], [ 4268389.931411501020193, 693725.995994496392086 ], [ 4268389.931411501020193, 693763.420511845266446 ], [ 4268389.931411501020193, 693800.845029194140807 ], [ 4268427.355928849428892, 693800.845029194140807 ], [ 4268464.780446197837591, 693800.845029194140807 ], [ 4268502.20496354624629, 693800.845029194140807 ], [ 4268539.629480894654989, 693800.845029194140807 ], [ 4268566.092610894702375, 693827.308159194188192 ], [ 4268566.092610894702375, 693864.732676543062553 ], [ 4268566.092610894702375, 693902.157193891936913 ], [ 4268566.092610894702375, 693939.581711240811273 ], [ 4268566.092610894702375, 693977.006228589685634 ], [ 4268566.092610894702375, 694014.430745938559994 ], [ 4268566.092610894702375, 694051.855263287434354 ], [ 4268566.092610894702375, 694089.279780636308715 ], [ 4268566.092610894702375, 694126.704297985183075 ], [ 4268566.092610894702375, 694164.128815334057435 ], [ 4268566.092610894702375, 694201.553332682931796 ], [ 4268566.092610894702375, 694238.977850031806156 ], [ 4268566.092610894702375, 694276.402367380680516 ], [ 4268592.555740894749761, 694302.865497380727902 ], [ 4268629.98025824315846, 694302.865497380727902 ], [ 4268667.404775591567159, 694302.865497380727902 ], [ 4268704.829292939975858, 694302.865497380727902 ], [ 4268704.829292939975858, 694340.290014729602262 ], [ 4268704.829292939975858, 694377.714532078476623 ], [ 4268704.829292939975858, 694415.139049427350983 ], [ 4268704.829292939975858, 694452.563566776225343 ], [ 4268704.829292939975858, 694489.988084125099704 ], [ 4268704.829292939975858, 694527.412601473974064 ], [ 4268704.829292939975858, 694564.837118822848424 ], [ 4268704.829292939975858, 694602.261636171722785 ], [ 4268704.829292939975858, 694639.686153520597145 ], [ 4268704.829292939975858, 694677.110670869471505 ], [ 4268704.829292939975858, 694714.535188218345866 ], [ 4268704.829292939975858, 694751.959705567220226 ], [ 4268704.829292939975858, 694789.384222916094586 ], [ 4268704.829292939975858, 694826.808740264968947 ], [ 4268704.829292939975858, 694864.233257613843307 ], [ 4268704.829292939975858, 694901.657774962717667 ], [ 4268704.829292939975858, 694939.082292311592028 ], [ 4268731.292422940023243, 694965.545422311639413 ], [ 4268768.716940288431942, 694965.545422311639413 ], [ 4268806.141457636840641, 694965.545422311639413 ], [ 4268843.565974985249341, 694965.545422311639413 ], [ 4268880.99049233365804, 694965.545422311639413 ], [ 4268907.453622333705425, 694992.008552311686799 ], [ 4268907.453622333705425, 695029.433069660561159 ], [ 4268907.453622333705425, 695066.85758700943552 ], [ 4268907.453622333705425, 695104.28210435830988 ], [ 4268907.453622333705425, 695141.70662170718424 ], [ 4268907.453622333705425, 695179.131139056058601 ], [ 4268907.453622333705425, 695216.555656404932961 ], [ 4268907.453622333705425, 695253.980173753807321 ], [ 4268907.453622333705425, 695291.404691102681682 ], [ 4268944.878139682114124, 695291.404691102681682 ], [ 4268982.302657030522823, 695291.404691102681682 ], [ 4269019.727174378931522, 695291.404691102681682 ], [ 4269046.190304378978908, 695317.867821102729067 ], [ 4269046.190304378978908, 695355.292338451603428 ], [ 4269046.190304378978908, 695392.716855800477788 ], [ 4269046.190304378978908, 695430.141373149352148 ], [ 4269046.190304378978908, 695467.565890498226508 ], [ 4269046.190304378978908, 695504.990407847100869 ], [ 4269046.190304378978908, 695542.414925195975229 ], [ 4269046.190304378978908, 695579.839442544849589 ], [ 4269046.190304378978908, 695617.26395989372395 ], [ 4269046.190304378978908, 695654.68847724259831 ], [ 4269046.190304378978908, 695692.11299459147267 ], [ 4269046.190304378978908, 695729.537511940347031 ], [ 4269046.190304378978908, 695766.962029289221391 ], [ 4269072.653434379026294, 695793.425159289268777 ], [ 4269110.077951727434993, 695793.425159289268777 ], [ 4269147.502469075843692, 695793.425159289268777 ], [ 4269184.926986424252391, 695793.425159289268777 ], [ 4269211.390116424299777, 695819.888289289316162 ], [ 4269211.390116424299777, 695857.312806638190523 ], [ 4269211.390116424299777, 695894.737323987064883 ], [ 4269211.390116424299777, 695932.161841335939243 ], [ 4269211.390116424299777, 695969.586358684813604 ], [ 4269211.390116424299777, 696007.010876033687964 ], [ 4269211.390116424299777, 696044.435393382562324 ], [ 4269211.390116424299777, 696081.859910731436685 ], [ 4269211.390116424299777, 696119.284428080311045 ], [ 4269248.814633772708476, 696119.284428080311045 ], [ 4269286.239151121117175, 696119.284428080311045 ], [ 4269323.663668469525874, 696119.284428080311045 ], [ 4269361.088185817934573, 696119.284428080311045 ], [ 4269361.088185817934573, 696156.708945429185405 ], [ 4269361.088185817934573, 696194.133462778059766 ], [ 4269361.088185817934573, 696231.557980126934126 ], [ 4269361.088185817934573, 696268.982497475808486 ], [ 4269361.088185817934573, 696306.407014824682847 ], [ 4269361.088185817934573, 696343.831532173557207 ], [ 4269361.088185817934573, 696381.256049522431567 ], [ 4269361.088185817934573, 696418.680566871305928 ], [ 4269387.551315817981958, 696445.143696871353313 ], [ 4269424.975833166390657, 696445.143696871353313 ], [ 4269462.400350514799356, 696445.143696871353313 ], [ 4269499.824867863208055, 696445.143696871353313 ], [ 4269526.287997863255441, 696471.606826871400699 ], [ 4269526.287997863255441, 696509.031344220275059 ], [ 4269526.287997863255441, 696546.45586156914942 ], [ 4269526.287997863255441, 696583.88037891802378 ], [ 4269552.751127863302827, 696610.343508918071166 ], [ 4269590.175645211711526, 696610.343508918071166 ], [ 4269627.600162560120225, 696610.343508918071166 ], [ 4269665.024679908528924, 696610.343508918071166 ], [ 4269702.449197256937623, 696610.343508918071166 ], [ 4269728.912327256985009, 696636.806638918118551 ], [ 4269728.912327256985009, 696674.231156266992912 ], [ 4269728.912327256985009, 696711.655673615867272 ], [ 4269728.912327256985009, 696749.080190964741632 ], [ 4269728.912327256985009, 696786.504708313615993 ], [ 4269728.912327256985009, 696823.929225662490353 ], [ 4269728.912327256985009, 696861.353743011364713 ], [ 4269728.912327256985009, 696898.778260360239074 ], [ 4269728.912327256985009, 696936.202777709113434 ], [ 4269766.336844605393708, 696936.202777709113434 ], [ 4269803.761361953802407, 696936.202777709113434 ], [ 4269841.185879302211106, 696936.202777709113434 ], [ 4269867.649009302258492, 696962.66590770916082 ], [ 4269867.649009302258492, 697000.09042505803518 ], [ 4269867.649009302258492, 697037.51494240690954 ], [ 4269867.649009302258492, 697074.939459755783901 ], [ 4269867.649009302258492, 697112.363977104658261 ], [ 4269867.649009302258492, 697149.788494453532621 ], [ 4269867.649009302258492, 697187.213011802406982 ], [ 4269867.649009302258492, 697224.637529151281342 ], [ 4269867.649009302258492, 697262.062046500155702 ], [ 4269867.649009302258492, 697299.486563849030063 ], [ 4269867.649009302258492, 697336.911081197904423 ], [ 4269867.649009302258492, 697374.335598546778783 ], [ 4269867.649009302258492, 697411.760115895653144 ], [ 4269894.112139302305877, 697438.223245895700529 ], [ 4269931.536656650714576, 697438.223245895700529 ], [ 4269968.961173999123275, 697438.223245895700529 ], [ 4270006.385691347531974, 697438.223245895700529 ], [ 4270032.84882134757936, 697464.686375895747915 ], [ 4270032.84882134757936, 697502.110893244622275 ], [ 4270032.84882134757936, 697539.535410593496636 ], [ 4270032.84882134757936, 697576.959927942370996 ], [ 4270032.84882134757936, 697614.384445291245356 ], [ 4270032.84882134757936, 697651.808962640119717 ], [ 4270032.84882134757936, 697689.233479988994077 ], [ 4270032.84882134757936, 697726.657997337868437 ], [ 4270032.84882134757936, 697764.082514686742797 ], [ 4270070.273338695988059, 697764.082514686742797 ], [ 4270107.697856044396758, 697764.082514686742797 ], [ 4270145.122373392805457, 697764.082514686742797 ], [ 4270182.546890741214156, 697764.082514686742797 ], [ 4270182.546890741214156, 697801.507032035617158 ], [ 4270182.546890741214156, 697838.931549384491518 ], [ 4270182.546890741214156, 697876.356066733365878 ], [ 4270182.546890741214156, 697913.780584082240239 ], [ 4270182.546890741214156, 697951.205101431114599 ], [ 4270182.546890741214156, 697988.629618779988959 ], [ 4270182.546890741214156, 698026.05413612886332 ], [ 4270182.546890741214156, 698063.47865347773768 ], [ 4270182.546890741214156, 698100.90317082661204 ] ] ] } }
]
}
